{"type":"FeatureCollection","features":[{"type":"Feature","properties":{"kind":"coast"},"geometry":{"type":"LineString","coordinates":[[-57.97115,-34.81604],[-57.97435,-34.81652],[-57.97506,-34.81202],[-57.9995,-34.78847],[-58.0145,-34.78066],[-58.05483,-34.77634],[-58.11253,-34.75182],[-58.16598,-34.74796],[-58.19742,-34.73615],[-58.21115,-34.71779],[-58.23107,-34.70567],[-58.22884,-34.70167],[-58.23396,-34.70559],[-58.22913,-34.70021],[-58.23427,-34.70264],[-58.23899,-34.70063],[-58.31597,-34.65854],[-58.33108,-34.64586],[-58.32891,-34.64374],[-58.33229,-34.63525],[-58.32931,-34.63142],[-58.34299,-34.62274],[-58.33731,-34.62272],[-58.33798,-34.61905],[-58.344,-34.61862],[-58.34535,-34.62334],[-58.34454,-34.61903],[-58.35517,-34.61947],[-58.34108,-34.61699],[-58.33996,-34.61396],[-58.35532,-34.59551],[-58.36793,-34.5973],[-58.36723,-34.59147],[-58.3643,-34.5943],[-58.36795,-34.59012],[-58.35942,-34.58811],[-58.36351,-34.58747],[-58.35986,-34.58411],[-58.36614,-34.58355],[-58.36161,-34.58115],[-58.36898,-34.58176],[-58.36527,-34.57974],[-58.37431,-34.5787],[-58.37604,-34.57751],[-58.37073,-34.57663],[-58.37549,-34.57391],[-58.38357,-34.57341],[-58.37821,-34.57278],[-58.3811,-34.56852],[-58.39115,-34.57026],[-58.3828,-34.57546],[-58.3852,-34.57641],[-58.39648,-34.5669],[-58.39991,-34.56919],[-58.39696,-34.56516],[-58.40378,-34.56369],[-58.40945,-34.55667],[-58.42539,-34.55229],[-58.42467,-34.54904],[-58.42646,-34.55179],[-58.42492,-34.54911],[-58.42955,-34.5489],[-58.43596,-34.54057],[-58.44893,-34.53556],[-58.45418,-34.5387],[-58.45,-34.53517],[-58.4514,-34.5317],[-58.4586,-34.5373],[-58.45333,-34.53019],[-58.45713,-34.52658],[-58.4628,-34.52835],[-58.46785,-34.52321],[-58.46876,-34.51572],[-58.4723,-34.51536],[-58.46852,-34.51319],[-58.47376,-34.51277],[-58.47112,-34.51095],[-58.47491,-34.50942],[-58.47372,-34.50556],[-58.47738,-34.50567],[-58.47375,-34.50283],[-58.47653,-34.50389],[-58.47671,-34.49749],[-58.48009,-34.49608],[-58.48212,-34.47891],[-58.49324,-34.47047],[-58.49342,-34.46542],[-58.49673,-34.46862],[-58.49407,-34.46399],[-58.49957,-34.46444],[-58.49777,-34.46294],[-58.50112,-34.46133],[-58.50491,-34.45011],[-58.50456,-34.46285],[-58.50843,-34.45591],[-58.51301,-34.45341],[-58.51841,-34.45499],[-58.51344,-34.45328],[-58.51542,-34.45164],[-58.51995,-34.45352],[-58.51588,-34.4513],[-58.52053,-34.45177],[-58.51622,-34.4472],[-58.51667,-34.44913],[-58.5227,-34.44829],[-58.51918,-34.44755],[-58.52325,-34.44588],[-58.52496,-34.44761],[-58.52163,-34.44219],[-58.52111,-34.44422],[-58.5103,-34.44076],[-58.51249,-34.43295],[-58.51012,-34.44066],[-58.50436,-34.43878],[-58.50451,-34.42624],[-58.51316,-34.41261],[-58.50406,-34.41518],[-58.50331,-34.40871],[-58.49347,-34.40815],[-58.49248,-34.40083],[-58.4857,-34.40201],[-58.48827,-34.39879],[-58.48172,-34.39816],[-58.48272,-34.39039],[-58.48853,-34.38501],[-58.48135,-34.3852],[-58.4813,-34.38259],[-58.47623,-34.38598],[-58.47265,-34.38376],[-58.46871,-34.38638],[-58.46407,-34.3846],[-58.4654,-34.37761],[-58.47408,-34.37042],[-58.47694,-34.37103],[-58.4716,-34.37166],[-58.45476,-34.38812],[-58.46062,-34.37743],[-58.4564,-34.37471],[-58.45262,-34.37728],[-58.44752,-34.37598],[-58.44276,-34.36664],[-58.45521,-34.35194],[-58.4539,-34.34919],[-58.45121,-34.35206],[-58.44902,-34.35076],[-58.45728,-34.34356],[-58.45865,-34.33096],[-58.46894,-34.32657],[-58.47964,-34.3267],[-58.47507,-34.31395],[-58.48111,-34.31017],[-58.47718,-34.30761],[-58.47421,-34.30945],[-58.47452,-34.30549],[-58.48186,-34.29967],[-58.49758,-34.29813],[-58.50581,-34.29415],[-58.49077,-34.27778],[-58.50906,-34.27047],[-58.49988,-34.26857],[-58.49942,-34.26589],[-58.49383,-34.2699],[-58.48642,-34.26841],[-58.46982,-34.27446],[-58.45706,-34.27149],[-58.44531,-34.25039],[-58.45398,-34.24443],[-58.44503,-34.24978],[-58.45119,-34.26649],[-58.41867,-34.26572],[-58.40561,-34.25493],[-58.40173,-34.25902],[-58.38844,-34.24235],[-58.39101,-34.23636],[-58.40095,-34.23071],[-58.40851,-34.23003],[-58.40785,-34.2281],[-58.38824,-34.22179],[-58.38971,-34.2232],[-58.38082,-34.22371],[-58.38378,-34.21433],[-58.38904,-34.20968],[-58.37147,-34.21319],[-58.37929,-34.20491],[-58.37625,-34.20013],[-58.36282,-34.20531],[-58.36148,-34.2086],[-58.36105,-34.20239],[-58.36883,-34.19435],[-58.36096,-34.19948],[-58.35895,-34.2064],[-58.35593,-34.20717],[-58.3529,-34.20228],[-58.35429,-34.19389],[-58.35937,-34.19505],[-58.35616,-34.18948],[-58.37793,-34.16205],[-58.37802,-34.15905],[-58.37345,-34.1621],[-58.36882,-34.15289],[-58.37058,-34.14499],[-58.36694,-34.12777],[-58.36455,-34.12874],[-58.36007,-34.12363],[-58.36903,-34.11076],[-58.36531,-34.10732],[-58.36197,-34.09045],[-58.36579,-34.06548],[-58.36138,-34.0604],[-58.36232,-34.05451],[-58.38164,-34.03917],[-58.39609,-34.01826],[-58.4125,-34.01122],[-58.39612,-34.01653],[-58.3966,-34.01369],[-58.41404,-34.00881],[-58.41853,-34.00351],[-58.38928,-33.98889],[-58.38739,-33.98541],[-58.40479,-33.96393],[-58.42364,-33.91362],[-58.41692,-33.91357],[-58.39595,-33.92958],[-58.38461,-33.94263],[-58.37583,-33.94575]]}},{"type":"Feature","properties":{"kind":"coast"},"geometry":{"type":"LineString","coordinates":[[-57.71905,-34.92782],[-57.75109,-34.91506],[-57.78685,-34.89348],[-57.81663,-34.86703],[-57.82431,-34.86499],[-57.86224,-34.84094],[-57.87313,-34.82536],[-57.88546,-34.85134],[-57.86923,-34.85448],[-57.86616,-34.85816],[-57.86996,-34.85435],[-57.87572,-34.85466],[-57.86292,-34.86299],[-57.84413,-34.86663],[-57.86091,-34.86412],[-57.87407,-34.85751],[-57.875,-34.86008],[-57.87715,-34.85478],[-57.89772,-34.84731],[-57.90981,-34.84501],[-57.91076,-34.84898],[-57.91065,-34.84482],[-57.91545,-34.84221],[-57.91964,-34.8428],[-57.91876,-34.84812],[-57.92248,-34.84959],[-57.91733,-34.84108],[-57.92979,-34.84265],[-57.92855,-34.84068],[-57.93351,-34.84002],[-57.94148,-34.8432],[-57.98435,-34.88047],[-57.94151,-34.84284],[-57.92821,-34.84017],[-57.92564,-34.83623],[-57.92832,-34.83231],[-57.94546,-34.83028],[-57.94846,-34.83308],[-57.94641,-34.82953],[-57.95535,-34.828],[-57.97115,-34.81604]]}},{"type":"Feature","properties":{"kind":"boundary"},"geometry":{"type":"LineString","coordinates":[[-58.33396,-34.75824],[-58.30978,-34.79339],[-58.3328,-34.80575],[-58.29247,-34.85487],[-58.31715,-34.86815],[-58.31246,-34.87484],[-58.3421,-34.89071],[-58.3463,-34.88503],[-58.39644,-34.90988],[-58.41594,-34.88302],[-58.40879,-34.87946],[-58.44775,-34.82599],[-58.4051,-34.80457],[-58.40995,-34.79859],[-58.35868,-34.77135],[-58.362,-34.76739],[-58.33664,-34.7544],[-58.33396,-34.75824]]}},{"type":"Feature","properties":{"kind":"boundary"},"geometry":{"type":"LineString","coordinates":[[-58.33838,-34.63358],[-58.33312,-34.63506],[-58.33285,-34.64473],[-58.32761,-34.6495],[-58.27964,-34.67864],[-58.33351,-34.72698],[-58.37816,-34.68828],[-58.39092,-34.68073],[-58.39714,-34.67454],[-58.39482,-34.67248],[-58.40651,-34.66351],[-58.40282,-34.65998],[-58.39172,-34.66261],[-58.38528,-34.65823],[-58.37405,-34.65719],[-58.35662,-34.64463],[-58.35765,-34.64024],[-58.35205,-34.63548],[-58.34189,-34.6311],[-58.33838,-34.63358]]}},{"type":"Feature","properties":{"kind":"boundary"},"geometry":{"type":"LineString","coordinates":[[-59.23921,-33.89791],[-59.22775,-33.92011],[-59.22838,-33.92503],[-59.25209,-33.93051],[-59.25828,-33.93546],[-59.25874,-33.94121],[-59.27142,-33.93268],[-59.28335,-33.93029],[-59.29734,-33.93184],[-59.30867,-33.92432],[-59.31405,-33.92458],[-59.32359,-33.93118],[-59.33267,-33.9254],[-59.34088,-33.92538],[-59.34714,-33.93503],[-59.34413,-33.94003],[-59.34694,-33.94097],[-59.34591,-33.9451],[-59.34101,-33.94803],[-59.34559,-33.9524],[-59.33993,-33.95522],[-59.33185,-33.97991],[-59.33456,-33.98115],[-59.32838,-33.98695],[-59.31881,-34.00981],[-59.31963,-34.0238],[-59.34104,-34.04257],[-59.37564,-34.05657],[-59.40646,-34.06095],[-59.39554,-34.07451],[-59.46309,-34.13501],[-59.51091,-34.0994],[-59.52317,-34.11946],[-59.53524,-34.13019],[-59.54235,-34.14302],[-59.54332,-34.15213],[-59.55782,-34.16127],[-59.56209,-34.16797],[-59.58497,-34.1686],[-59.59459,-34.17173],[-59.6022,-34.16711],[-59.61541,-34.16693],[-59.62753,-34.15832],[-59.63216,-34.15848]]}},{"type":"Feature","properties":{"kind":"boundary"},"geometry":{"type":"LineString","coordinates":[[-58.19101,-34.7382],[-58.16587,-34.74778],[-58.117,-34.7507],[-58.06591,-34.77305],[-58.01769,-34.78032],[-58.14786,-34.88744],[-58.20797,-34.94198],[-58.20364,-34.94524],[-58.21108,-34.95178],[-58.24741,-34.92359],[-58.17987,-34.866],[-58.19991,-34.81377],[-58.2385,-34.80041],[-58.25265,-34.79035],[-58.26746,-34.77365],[-58.19465,-34.73569],[-58.19101,-34.7382]]}},{"type":"Feature","properties":{"kind":"boundary"},"geometry":{"type":"LineString","coordinates":[[-57.86216,-34.84109],[-57.82464,-34.86499],[-57.81675,-34.86715],[-57.77178,-34.90258],[-57.75103,-34.91493],[-57.71904,-34.92783]]}},{"type":"Feature","properties":{"kind":"boundary"},"geometry":{"type":"LineString","coordinates":[[-57.71904,-34.94032],[-57.75235,-34.97066],[-57.77075,-34.95703],[-57.78459,-34.96263],[-57.80331,-34.96418],[-57.84177,-34.9489],[-57.86173,-34.93766],[-57.87191,-34.93765],[-57.8959,-34.93044],[-57.93185,-34.90346],[-57.90055,-34.87486],[-57.87695,-34.82772],[-57.87374,-34.82616],[-57.86216,-34.84109]]}},{"type":"Feature","properties":{"kind":"boundary"},"geometry":{"type":"LineString","coordinates":[[-58.16704,-35.04774],[-58.17725,-35.05715],[-58.11005,-35.10843],[-58.10184,-35.10118],[-58.03058,-35.1542],[-58.01807,-35.16811],[-58.07753,-35.22],[-58.05409,-35.23683],[-57.96811,-35.15969],[-57.89014,-35.22214],[-58.03584,-35.344],[-58.04482,-35.33456],[-58.13862,-35.42037],[-58.18685,-35.38258],[-58.21927,-35.40804],[-58.25955,-35.37711],[-58.24682,-35.36532],[-58.4469,-35.21403],[-58.41482,-35.18543],[-58.4107,-35.18843],[-58.35271,-35.13786],[-58.33884,-35.14853],[-58.23627,-35.05828],[-58.24658,-35.04828],[-58.16142,-34.97185],[-58.12026,-35.00457],[-58.16704,-35.04774]]}},{"type":"Feature","properties":{"kind":"boundary"},"geometry":{"type":"LineString","coordinates":[[-58.74946,-33.95459],[-58.73352,-33.96649],[-58.6753,-34.02547],[-58.79315,-34.07826],[-58.80403,-34.08078],[-58.80475,-34.08752],[-58.76385,-34.12647],[-58.76843,-34.13177],[-58.76456,-34.14412],[-58.75897,-34.15152],[-58.74679,-34.15441],[-58.7467,-34.16551],[-58.6914,-34.17243],[-58.69436,-34.20059],[-58.70164,-34.21369],[-58.71084,-34.2191],[-58.71215,-34.2489],[-58.77034,-34.23761],[-58.7931,-34.2294],[-58.79851,-34.23022],[-58.8033,-34.23633],[-58.79359,-34.25161],[-58.78814,-34.25495],[-58.78126,-34.27107],[-58.77654,-34.27381],[-58.77489,-34.28106],[-58.77874,-34.28675],[-58.79981,-34.27678],[-58.80834,-34.28137],[-58.82225,-34.2724],[-58.82982,-34.27482],[-58.85617,-34.26182],[-58.86283,-34.26418],[-58.86464,-34.2672],[-58.86032,-34.27313],[-58.86391,-34.27723],[-58.87081,-34.27267],[-58.8758,-34.27347],[-58.87464,-34.27577],[-58.87792,-34.27444],[-58.87738,-34.28052],[-58.88113,-34.28336],[-58.87706,-34.28467],[-58.87979,-34.28865],[-58.88298,-34.28676],[-58.87821,-34.2916],[-58.8823,-34.2957],[-58.88079,-34.29792],[-58.88881,-34.30029],[-58.88899,-34.30515],[-58.89328,-34.30393],[-58.89198,-34.30655],[-58.89838,-34.30682],[-58.90107,-34.31114],[-58.9034,-34.30868],[-58.9024,-34.31139],[-58.90809,-34.31239],[-58.91096,-34.31705],[-58.90936,-34.32016],[-58.91493,-34.32072],[-58.91177,-34.32604],[-58.91681,-34.32567],[-58.91548,-34.33273],[-58.91838,-34.33421],[-58.91438,-34.33582],[-58.91777,-34.33964],[-58.91358,-34.34478],[-58.91798,-34.35231],[-58.9158,-34.35723],[-58.90774,-34.35995],[-58.92121,-34.37155],[-58.91816,-34.37239],[-58.91724,-34.38047],[-58.91974,-34.38103],[-58.94203,-34.35594],[-58.94499,-34.35912],[-58.97717,-34.32056],[-58.98106,-34.32275],[-59.01427,-34.29563],[-59.01518,-34.28991],[-59.03715,-34.27071],[-59.03504,-34.26843],[-59.06156,-34.24804],[-59.05715,-34.2415],[-59.0782,-34.22452],[-59.0915,-34.22822],[-59.10581,-34.2139],[-59.10226,-34.19745],[-58.97331,-34.1291],[-58.97278,-34.1193],[-58.9775,-34.11328],[-59.00952,-34.09907],[-59.00054,-34.08785],[-58.96605,-33.96058],[-58.955,-33.96395],[-58.93348,-33.95737],[-58.84953,-33.95761],[-58.83803,-33.95602],[-58.8372,-33.95375],[-58.81561,-33.95459],[-58.77771,-33.94263],[-58.76374,-33.94531],[-58.74946,-33.95459]]}},{"type":"Feature","properties":{"kind":"boundary"},"geometry":{"type":"LineString","coordinates":[[-58.64294,-34.90064],[-58.62819,-34.91976],[-58.62134,-34.91992],[-58.61065,-34.92522],[-58.59905,-34.94295],[-58.62015,-34.96074],[-58.55426,-35.00914],[-58.60044,-35.05242],[-58.57932,-35.06835],[-58.57792,-35.15166],[-58.55377,-35.17127],[-58.55819,-35.17444],[-58.53696,-35.1922],[-58.53373,-35.19011],[-58.49575,-35.22112],[-58.46797,-35.23842],[-58.57165,-35.3282],[-58.52511,-35.36657],[-58.54369,-35.38218],[-58.54102,-35.38468],[-58.5821,-35.42144],[-58.66313,-35.35495],[-58.67415,-35.36038],[-58.70743,-35.33509],[-58.67832,-35.30447],[-58.74675,-35.2527],[-58.77077,-35.27398],[-58.81195,-35.24235],[-58.80859,-35.23932],[-58.89485,-35.17619],[-58.86897,-35.15357],[-58.9341,-35.10351],[-58.77748,-34.96496],[-58.79107,-34.95526],[-58.76534,-34.959],[-58.75107,-34.94075],[-58.73836,-34.93632],[-58.72693,-34.92375],[-58.69935,-34.91294],[-58.68593,-34.91181],[-58.65033,-34.89109],[-58.64294,-34.90064]]}},{"type":"Feature","properties":{"kind":"boundary"},"geometry":{"type":"LineString","coordinates":[[-57.98233,-35.33238],[-57.97724,-35.33928],[-57.97936,-35.34469],[-57.97334,-35.34675],[-57.96804,-35.35461],[-57.95274,-35.3594],[-57.9472,-35.37195],[-57.94359,-35.37088],[-57.93641,-35.3762],[-57.91786,-35.37143],[-57.91291,-35.38184],[-57.90045,-35.38002],[-57.88847,-35.3847],[-57.88871,-35.39202],[-57.87392,-35.38589],[-57.87274,-35.39715],[-57.86243,-35.39977],[-57.85281,-35.41229],[-57.83267,-35.41554],[-57.82683,-35.42993],[-57.81452,-35.4419],[-57.79254,-35.44559],[-57.7796,-35.43983],[-57.77063,-35.43982],[-57.76751,-35.44311],[-57.76931,-35.45787],[-57.7669,-35.46326],[-57.75496,-35.46026],[-57.74341,-35.46826],[-57.74539,-35.47346],[-57.72757,-35.47578],[-57.71904,-35.47984]]}},{"type":"Feature","properties":{"kind":"boundary"},"geometry":{"type":"LineString","coordinates":[[-57.71904,-35.77345],[-57.74143,-35.76913],[-57.75841,-35.76149],[-57.81437,-35.71875],[-57.81219,-35.71684],[-57.82516,-35.70699],[-57.83482,-35.69988],[-57.83765,-35.70229],[-57.86099,-35.68578],[-57.86768,-35.69169],[-57.87332,-35.68754],[-57.88737,-35.69987],[-57.89818,-35.6915],[-57.92741,-35.71771],[-57.92924,-35.7164],[-57.98031,-35.75732],[-57.99267,-35.75431],[-58.01162,-35.7397],[-58.03608,-35.76169],[-58.04533,-35.75643],[-58.07013,-35.77764],[-58.07365,-35.77511],[-58.07573,-35.77908]]}},{"type":"Feature","properties":{"kind":"boundary"},"geometry":{"type":"LineString","coordinates":[[-58.09115,-35.77908],[-58.09687,-35.77504],[-58.10159,-35.77908]]}},{"type":"Feature","properties":{"kind":"boundary"},"geometry":{"type":"LineString","coordinates":[[-58.43023,-35.77908],[-58.43155,-35.77535],[-58.44479,-35.76786],[-58.44964,-35.77072],[-58.45364,-35.76954],[-58.45411,-35.75906],[-58.44856,-35.75504],[-58.45166,-35.74119],[-58.43739,-35.73512],[-58.34154,-35.65201],[-58.33221,-35.63506],[-58.19907,-35.52252],[-58.20382,-35.51867],[-58.15239,-35.47237],[-58.19391,-35.44095],[-58.15486,-35.40815],[-58.13862,-35.42037],[-58.04482,-35.33456],[-58.03543,-35.34688],[-58.025,-35.35378],[-58.00859,-35.34495],[-58.00245,-35.33254],[-57.9938,-35.33248],[-57.98625,-35.32846],[-57.98233,-35.33238]]}},{"type":"Feature","properties":{"kind":"boundary"},"geometry":{"type":"LineString","coordinates":[[-59.63216,-34.96043],[-59.60518,-34.99771],[-59.63216,-35.01986]]}},{"type":"Feature","properties":{"kind":"boundary"},"geometry":{"type":"LineString","coordinates":[[-58.01632,-34.78036],[-58.00151,-34.78681],[-57.97355,-34.8153],[-57.95977,-34.82563],[-57.94642,-34.82956],[-57.94734,-34.83348],[-57.9454,-34.83091],[-57.92672,-34.83264],[-57.87695,-34.82772],[-57.90055,-34.87486],[-57.93185,-34.90346],[-57.9746,-34.87237],[-57.98402,-34.88033],[-57.99087,-34.87968],[-57.99854,-34.87157],[-58.08363,-34.83514],[-58.01632,-34.78036]]}},{"type":"Feature","properties":{"kind":"boundary"},"geometry":{"type":"LineString","coordinates":[[-58.71215,-34.2489],[-58.64952,-34.2666],[-58.65438,-34.27253],[-58.68081,-34.34721],[-58.68603,-34.35121],[-58.69039,-34.34718],[-58.72062,-34.36329],[-58.70533,-34.37297],[-58.71462,-34.38823],[-58.72136,-34.39008],[-58.71591,-34.39254],[-58.73463,-34.40246],[-58.70561,-34.43934],[-58.73731,-34.45642],[-58.77767,-34.40427],[-58.78832,-34.39967],[-58.79817,-34.41027],[-58.81699,-34.4154],[-58.83937,-34.38633],[-58.84299,-34.3872],[-58.90064,-34.30849],[-58.89216,-34.30666],[-58.89147,-34.30317],[-58.88899,-34.30515],[-58.88881,-34.30029],[-58.88079,-34.29792],[-58.8823,-34.2957],[-58.87821,-34.2916],[-58.88298,-34.28676],[-58.87979,-34.28865],[-58.87706,-34.28467],[-58.88113,-34.28336],[-58.87738,-34.28052],[-58.87792,-34.27444],[-58.87464,-34.27577],[-58.8758,-34.27347],[-58.87081,-34.27267],[-58.86391,-34.27723],[-58.86032,-34.27313],[-58.86467,-34.26699],[-58.85839,-34.26198],[-58.84983,-34.26412],[-58.8439,-34.26981],[-58.84067,-34.26786],[-58.82982,-34.27482],[-58.82225,-34.2724],[-58.80899,-34.2812],[-58.80384,-34.28107],[-58.79981,-34.27678],[-58.79113,-34.28258],[-58.77638,-34.28574],[-58.77654,-34.27381],[-58.78126,-34.27107],[-58.78814,-34.25495],[-58.79359,-34.25161],[-58.8033,-34.23633],[-58.79851,-34.23022],[-58.7931,-34.2294],[-58.77034,-34.23761],[-58.71215,-34.2489]]}},{"type":"Feature","properties":{"kind":"boundary"},"geometry":{"type":"LineString","coordinates":[[-58.5008,-34.72299],[-58.43053,-34.81725],[-58.44775,-34.82599],[-58.41304,-34.87358],[-58.4224,-34.88619],[-58.45325,-34.90121],[-58.49186,-34.92763],[-58.51033,-34.90168],[-58.50411,-34.88136],[-58.50285,-34.85496],[-58.5144,-34.79783],[-58.5245,-34.77914],[-58.52051,-34.74106],[-58.51266,-34.73989],[-58.5046,-34.72143],[-58.5008,-34.72299]]}},{"type":"Feature","properties":{"kind":"boundary"},"geometry":{"type":"LineString","coordinates":[[-59.30539,-34.16204],[-59.23716,-34.17181],[-59.23877,-34.17971],[-59.10307,-34.20009],[-59.10581,-34.2139],[-59.0915,-34.22822],[-59.0782,-34.22452],[-59.05715,-34.2415],[-59.06156,-34.24804],[-59.03504,-34.26843],[-59.03715,-34.27071],[-59.01518,-34.28991],[-59.01427,-34.29563],[-58.98106,-34.32275],[-58.97717,-34.32056],[-58.94499,-34.35912],[-58.94203,-34.35594],[-58.91853,-34.38191],[-58.92219,-34.38307],[-58.92004,-34.38577],[-58.92307,-34.38641],[-58.92119,-34.39163],[-58.92376,-34.39332],[-58.91948,-34.41462],[-58.92424,-34.41697],[-58.98026,-34.35064],[-58.99323,-34.35808],[-58.98401,-34.369],[-58.99179,-34.37347],[-58.99298,-34.37929],[-59.02858,-34.39771],[-59.02513,-34.40197],[-59.04215,-34.41418],[-59.03998,-34.41699],[-59.04427,-34.41924],[-59.04275,-34.42115],[-59.07165,-34.43609],[-59.07591,-34.43534],[-59.07541,-34.44172],[-59.08021,-34.44422],[-59.07721,-34.45117],[-59.09765,-34.46432],[-59.12959,-34.42061],[-59.13228,-34.42327],[-59.19624,-34.37407],[-59.1926,-34.37054],[-59.27459,-34.30493],[-59.27826,-34.30819],[-59.31035,-34.28943],[-59.29868,-34.26429],[-59.37526,-34.23806],[-59.37811,-34.22606],[-59.3666,-34.19892],[-59.35811,-34.19492],[-59.3247,-34.16368],[-59.30539,-34.16204]]}},{"type":"Feature","properties":{"kind":"boundary"},"geometry":{"type":"LineString","coordinates":[[-58.52051,-34.74106],[-58.52446,-34.77997],[-58.5144,-34.79783],[-58.50285,-34.85496],[-58.50411,-34.88136],[-58.51033,-34.90168],[-58.49016,-34.92884],[-58.53102,-34.96414],[-58.53428,-34.96153],[-58.55317,-34.97628],[-58.5492,-34.97982],[-58.55627,-35.00705],[-58.62015,-34.96074],[-58.59905,-34.94295],[-58.61065,-34.92522],[-58.62134,-34.91992],[-58.62819,-34.91976],[-58.65033,-34.89109],[-58.64636,-34.88863],[-58.6428,-34.86885],[-58.62495,-34.84422],[-58.61551,-34.81853],[-58.60659,-34.81071],[-58.59968,-34.81108],[-58.59738,-34.80467],[-58.59448,-34.80557],[-58.5959,-34.80369],[-58.58754,-34.79273],[-58.58794,-34.78658],[-58.58436,-34.78274],[-58.58634,-34.78037],[-58.57217,-34.77522],[-58.57483,-34.76853],[-58.5676,-34.76575],[-58.56815,-34.75883],[-58.55656,-34.75714],[-58.55176,-34.75092],[-58.54588,-34.75889],[-58.53751,-34.75695],[-58.53875,-34.74681],[-58.52051,-34.74106]]}},{"type":"Feature","properties":{"kind":"boundary"},"geometry":{"type":"LineString","coordinates":[[-58.26746,-34.77365],[-58.25265,-34.79035],[-58.2385,-34.80041],[-58.19991,-34.81377],[-58.17987,-34.866],[-58.24741,-34.92359],[-58.21108,-34.95178],[-58.24764,-34.98414],[-58.24564,-34.98796],[-58.26777,-35.00065],[-58.27717,-35.00942],[-58.30079,-34.97168],[-58.2882,-34.96504],[-58.31632,-34.92633],[-58.29406,-34.91532],[-58.27461,-34.91706],[-58.2809,-34.90761],[-58.29718,-34.89511],[-58.31715,-34.86815],[-58.29247,-34.85487],[-58.33281,-34.80574],[-58.30978,-34.79339],[-58.30411,-34.80116],[-58.29845,-34.78344],[-58.27164,-34.76883],[-58.26746,-34.77365]]}},{"type":"Feature","properties":{"kind":"boundary"},"geometry":{"type":"LineString","coordinates":[[-59.03437,-35.56489],[-59.03334,-35.56819],[-59.02251,-35.57331],[-59.00303,-35.59494],[-58.99629,-35.59594],[-58.97394,-35.58998],[-58.95797,-35.61717],[-58.94742,-35.62297],[-58.93166,-35.62277],[-58.9113,-35.6055],[-58.90375,-35.60551],[-58.9053,-35.59991],[-58.90984,-35.59796],[-58.9076,-35.59409],[-58.8991,-35.59087],[-58.89262,-35.59567],[-58.88186,-35.59313],[-58.87811,-35.60445],[-58.88347,-35.61108],[-58.88227,-35.61641],[-58.8883,-35.62112],[-58.87657,-35.6401],[-58.858,-35.6494],[-58.84375,-35.65079],[-58.8392,-35.65631],[-58.83509,-35.66604],[-58.84488,-35.67679],[-58.84314,-35.68185],[-58.83658,-35.68251],[-58.8339,-35.68771],[-58.81823,-35.6871],[-58.814,-35.69111],[-58.80504,-35.68971],[-58.80038,-35.6954],[-58.788,-35.70097],[-58.78411,-35.71561],[-58.76324,-35.7413],[-58.76597,-35.7532],[-58.76366,-35.75598],[-58.75784,-35.75673],[-58.75072,-35.75353],[-58.73801,-35.73115],[-58.72413,-35.72759],[-58.71602,-35.72173],[-58.68603,-35.72969],[-58.68079,-35.72911],[-58.67879,-35.72544],[-58.67061,-35.72976],[-58.66171,-35.72458],[-58.6581,-35.74416],[-58.65042,-35.74623],[-58.63558,-35.74313],[-58.62906,-35.75108],[-58.62209,-35.75023],[-58.60863,-35.74111],[-58.59509,-35.7501],[-58.5876,-35.75007],[-58.5829,-35.74678],[-58.5758,-35.74933],[-58.56093,-35.74437],[-58.55315,-35.74702],[-58.54136,-35.7463],[-58.53775,-35.74058],[-58.53678,-35.72566],[-58.52453,-35.72248],[-58.51665,-35.72947],[-58.51206,-35.75111],[-58.5017,-35.75333],[-58.4935,-35.74296],[-58.48694,-35.70743],[-58.48042,-35.70866],[-58.47436,-35.70593],[-58.46621,-35.68519],[-58.44204,-35.70217],[-58.43839,-35.70914],[-58.44297,-35.72124],[-58.43625,-35.73305],[-58.45166,-35.74119],[-58.44856,-35.75504],[-58.45411,-35.75906],[-58.45364,-35.76954],[-58.44964,-35.77072],[-58.44479,-35.76786],[-58.43155,-35.77535],[-58.43023,-35.77908]]}},{"type":"Feature","properties":{"kind":"boundary"},"geometry":{"type":"LineString","coordinates":[[-59.01553,-35.77908],[-59.01857,-35.77658],[-59.016,-35.77434],[-59.03647,-35.7565],[-59.10338,-35.70312],[-59.09586,-35.69674],[-59.13612,-35.66348],[-59.14205,-35.66571],[-59.14407,-35.65816],[-59.14173,-35.65393],[-59.14627,-35.64692],[-59.14347,-35.64382],[-59.14903,-35.63543],[-59.14301,-35.62562],[-59.13417,-35.62483],[-59.1286,-35.62023],[-59.10285,-35.62191],[-59.09811,-35.6184],[-59.08154,-35.6163],[-59.08004,-35.60683],[-59.06852,-35.60801],[-59.05987,-35.60438],[-59.04659,-35.61338],[-59.03767,-35.61295],[-59.03123,-35.60485],[-59.03045,-35.59154],[-59.02542,-35.58026],[-59.03437,-35.56489]]}},{"type":"Feature","properties":{"kind":"boundary"},"geometry":{"type":"LineString","coordinates":[[-59.03175,-34.76382],[-59.03373,-34.76693],[-58.9515,-34.83118],[-58.93619,-34.81783],[-58.92511,-34.82631],[-58.84527,-34.89171],[-58.85909,-34.90405],[-58.77748,-34.96496],[-58.9341,-35.10351],[-59.01481,-35.04129],[-58.99258,-35.02143],[-59.07544,-34.95799],[-59.08733,-34.94533],[-59.15516,-34.90135],[-59.21873,-34.85257],[-59.15428,-34.79357],[-59.1315,-34.76172],[-59.11539,-34.74844],[-59.08981,-34.71714],[-59.03175,-34.76382]]}},{"type":"Feature","properties":{"kind":"boundary"},"geometry":{"type":"LineString","coordinates":[[-58.41555,-35.23778],[-58.24682,-35.36532],[-58.25955,-35.37711],[-58.21927,-35.40804],[-58.18685,-35.38258],[-58.15486,-35.40809],[-58.19391,-35.44095],[-58.15239,-35.47237],[-58.20382,-35.51867],[-58.19907,-35.52252],[-58.33221,-35.63506],[-58.34154,-35.65201],[-58.43625,-35.73305],[-58.44297,-35.72124],[-58.43833,-35.71024],[-58.44138,-35.70287],[-58.46259,-35.68659],[-58.46742,-35.68569],[-58.47436,-35.70593],[-58.48042,-35.70866],[-58.48652,-35.70694],[-58.50644,-35.6505],[-58.49936,-35.64514],[-58.56871,-35.5959],[-58.55281,-35.57955],[-58.47049,-35.51194],[-58.58208,-35.42143],[-58.54102,-35.38468],[-58.54369,-35.38218],[-58.52511,-35.36657],[-58.57165,-35.3282],[-58.44296,-35.21624],[-58.41555,-35.23778]]}},{"type":"Feature","properties":{"kind":"boundary"},"geometry":{"type":"LineString","coordinates":[[-58.90991,-34.54231],[-58.88507,-34.57705],[-58.89095,-34.57981],[-58.86411,-34.61688],[-58.88431,-34.6272],[-58.88096,-34.63218],[-58.88447,-34.6688],[-58.8637,-34.68337],[-58.86941,-34.68943],[-58.88775,-34.69655],[-58.9123,-34.69812],[-58.91344,-34.70095],[-58.92114,-34.69933],[-58.93534,-34.70373],[-58.95265,-34.71666],[-58.95663,-34.72754],[-58.96644,-34.73927],[-58.99026,-34.7544],[-58.99829,-34.76279],[-59.00326,-34.76398],[-59.02177,-34.75825],[-59.03175,-34.76382],[-59.08981,-34.71714],[-59.09121,-34.71923],[-59.13608,-34.65886],[-59.11329,-34.64705],[-59.11533,-34.64447],[-59.05638,-34.61646],[-59.07006,-34.60388],[-59.03926,-34.58864],[-59.02554,-34.59281],[-58.9866,-34.57744],[-58.99263,-34.56858],[-58.98404,-34.56455],[-58.98719,-34.55986],[-58.9542,-34.54373],[-58.96189,-34.53374],[-58.92842,-34.5162],[-58.90991,-34.54231]]}},{"type":"Feature","properties":{"kind":"boundary"},"geometry":{"type":"LineString","coordinates":[[-58.55376,-34.53021],[-58.53778,-34.54416],[-58.52981,-34.53733],[-58.52461,-34.55044],[-58.50996,-34.56921],[-58.52297,-34.59756],[-58.56231,-34.59141],[-58.61924,-34.54673],[-58.60587,-34.53403],[-58.60152,-34.52124],[-58.60314,-34.51247],[-58.59834,-34.49817],[-58.6003,-34.49035],[-58.55376,-34.53021]]}},{"type":"Feature","properties":{"kind":"boundary"},"geometry":{"type":"LineString","coordinates":[[-58.64223,-34.56631],[-58.61603,-34.58871],[-58.62181,-34.63315],[-58.65349,-34.63161],[-58.69393,-34.59374],[-58.68982,-34.58904],[-58.68454,-34.58822],[-58.68167,-34.58141],[-58.67086,-34.57279],[-58.66747,-34.57355],[-58.65838,-34.56619],[-58.64634,-34.56293],[-58.64223,-34.56631]]}},{"type":"Feature","properties":{"kind":"boundary"},"geometry":{"type":"LineString","coordinates":[[-58.68222,-34.60323],[-58.68438,-34.60517],[-58.65349,-34.63161],[-58.66738,-34.68599],[-58.72902,-34.63478],[-58.71897,-34.6105],[-58.7099,-34.60151],[-58.69393,-34.59374],[-58.68222,-34.60323]]}},{"type":"Feature","properties":{"kind":"boundary"},"geometry":{"type":"LineString","coordinates":[[-58.78948,-34.47385],[-58.76068,-34.49515],[-58.72919,-34.50818],[-58.7209,-34.51823],[-58.75322,-34.54888],[-58.75634,-34.55085],[-58.76149,-34.54711],[-58.77603,-34.55706],[-58.82358,-34.50821],[-58.81916,-34.50169],[-58.81971,-34.49643],[-58.81115,-34.48574],[-58.81378,-34.46413],[-58.82169,-34.45196],[-58.78948,-34.47385]]}},{"type":"Feature","properties":{"kind":"boundary"},"geometry":{"type":"LineString","coordinates":[[-58.55221,-34.63759],[-58.46166,-34.70513],[-58.48452,-34.72757],[-58.4839,-34.73214],[-58.50447,-34.72128],[-58.51266,-34.73989],[-58.53875,-34.74681],[-58.53751,-34.75695],[-58.54588,-34.75889],[-58.55141,-34.75091],[-58.55656,-34.75714],[-58.56698,-34.75776],[-58.5676,-34.76575],[-58.57483,-34.76853],[-58.57217,-34.77522],[-58.58634,-34.78037],[-58.58436,-34.78274],[-58.58794,-34.78658],[-58.58754,-34.79273],[-58.5959,-34.80369],[-58.59448,-34.80557],[-58.59738,-34.80467],[-58.59968,-34.81108],[-58.60659,-34.81071],[-58.61551,-34.81853],[-58.62495,-34.84422],[-58.6428,-34.86885],[-58.64686,-34.88969],[-58.68593,-34.91181],[-58.69411,-34.91219],[-58.76249,-34.85842],[-58.74986,-34.84737],[-58.77324,-34.82761],[-58.7445,-34.82527],[-58.73448,-34.81722],[-58.71967,-34.81794],[-58.70705,-34.81127],[-58.75025,-34.77759],[-58.7284,-34.75931],[-58.70388,-34.77871],[-58.68194,-34.7595],[-58.67361,-34.76633],[-58.65792,-34.7533],[-58.67546,-34.73929],[-58.65501,-34.72232],[-58.6496,-34.72654],[-58.63615,-34.71503],[-58.64299,-34.70961],[-58.63938,-34.70062],[-58.58071,-34.6494],[-58.58188,-34.64317],[-58.57026,-34.64135],[-58.57092,-34.63837],[-58.55603,-34.63468],[-58.55221,-34.63759]]}},{"type":"Feature","properties":{"kind":"boundary"},"geometry":{"type":"LineString","coordinates":[[-58.40845,-34.66014],[-58.40254,-34.65999],[-58.40651,-34.66351],[-58.39482,-34.67248],[-58.39714,-34.67454],[-58.39194,-34.67981],[-58.37816,-34.68828],[-58.33351,-34.72698],[-58.34731,-34.73984],[-58.35616,-34.74014],[-58.36668,-34.74555],[-58.38609,-34.73712],[-58.41327,-34.73286],[-58.43264,-34.70762],[-58.44692,-34.68878],[-58.42386,-34.6623],[-58.41272,-34.65875],[-58.40845,-34.66014]]}},{"type":"Feature","properties":{"kind":"boundary"},"geometry":{"type":"LineString","coordinates":[[-57.99667,-34.87535],[-57.99087,-34.87968],[-57.98402,-34.88033],[-57.9746,-34.87237],[-57.8959,-34.93044],[-57.87191,-34.93765],[-57.86173,-34.93766],[-57.84177,-34.9489],[-57.80331,-34.96418],[-57.78459,-34.96263],[-57.77075,-34.95703],[-57.75235,-34.97066],[-58.05409,-35.23683],[-58.07753,-35.22],[-58.01807,-35.16811],[-58.03058,-35.1542],[-58.10184,-35.10118],[-58.11005,-35.10843],[-58.17725,-35.05715],[-58.12038,-35.00438],[-58.16142,-34.97185],[-58.24649,-35.04836],[-58.2884,-35.01727],[-58.26777,-35.00065],[-58.24564,-34.98796],[-58.24764,-34.98414],[-58.20364,-34.94524],[-58.20797,-34.94198],[-58.14786,-34.88744],[-58.08363,-34.83514],[-57.99854,-34.87157],[-57.99667,-34.87535]]}},{"type":"Feature","properties":{"kind":"boundary"},"geometry":{"type":"LineString","coordinates":[[-58.24801,-34.17494],[-58.24319,-34.17571],[-58.24306,-34.18694],[-58.25229,-34.19133],[-58.2563,-34.18964],[-58.25827,-34.18171],[-58.24801,-34.17494]]}},{"type":"Feature","properties":{"kind":"boundary"},"geometry":{"type":"LineString","coordinates":[[-59.11058,-35.68464],[-59.09586,-35.69674],[-59.10338,-35.70312],[-59.03647,-35.7565],[-59.016,-35.77434],[-59.01857,-35.77658],[-59.01553,-35.77908]]}},{"type":"Feature","properties":{"kind":"boundary"},"geometry":{"type":"LineString","coordinates":[[-59.22249,-35.77908],[-59.21084,-35.7757],[-59.20812,-35.77103],[-59.19078,-35.76732],[-59.18335,-35.76286],[-59.18194,-35.75226],[-59.17573,-35.74114],[-59.17958,-35.72171],[-59.17309,-35.71425],[-59.17488,-35.71201],[-59.16662,-35.70623],[-59.15846,-35.70687],[-59.15556,-35.71129],[-59.13961,-35.69942],[-59.13108,-35.69818],[-59.13188,-35.68667],[-59.13719,-35.68448],[-59.13976,-35.66625],[-59.13612,-35.66348],[-59.11058,-35.68464]]}},{"type":"Feature","properties":{"kind":"boundary"},"geometry":{"type":"LineString","coordinates":[[-57.86023,-35.68635],[-57.83765,-35.70229],[-57.83482,-35.69988],[-57.82516,-35.70699],[-57.81219,-35.71684],[-57.81437,-35.71875],[-57.75841,-35.76149],[-57.74143,-35.76913],[-57.71904,-35.77345]]}},{"type":"Feature","properties":{"kind":"boundary"},"geometry":{"type":"LineString","coordinates":[[-58.10159,-35.77908],[-58.09687,-35.77504],[-58.09115,-35.77908]]}},{"type":"Feature","properties":{"kind":"boundary"},"geometry":{"type":"LineString","coordinates":[[-58.07573,-35.77908],[-58.07365,-35.77511],[-58.07013,-35.77764],[-58.04533,-35.75643],[-58.03608,-35.76169],[-58.01162,-35.7397],[-57.99267,-35.75431],[-57.98031,-35.75732],[-57.92924,-35.7164],[-57.92741,-35.71771],[-57.89818,-35.6915],[-57.88737,-35.69987],[-57.87332,-35.68754],[-57.86768,-35.69169],[-57.86023,-35.68635]]}},{"type":"Feature","properties":{"kind":"boundary"},"geometry":{"type":"LineString","coordinates":[[-59.00239,-35.0138],[-58.99258,-35.02143],[-59.01481,-35.04129],[-58.86897,-35.15357],[-58.89485,-35.17619],[-58.80859,-35.23932],[-58.92511,-35.3417],[-58.93576,-35.33413],[-58.94443,-35.3344],[-58.95066,-35.34108],[-58.96216,-35.34191],[-58.96546,-35.33864],[-58.9795,-35.34234],[-59.00584,-35.36692],[-59.02541,-35.35228],[-59.0542,-35.37815],[-59.05885,-35.37473],[-59.12331,-35.43112],[-59.12518,-35.4359],[-59.15185,-35.42402],[-59.154,-35.41968],[-59.1646,-35.42057],[-59.16289,-35.41626],[-59.16724,-35.4059],[-59.17652,-35.40351],[-59.17717,-35.40694],[-59.18251,-35.40901],[-59.18742,-35.40473],[-59.1853,-35.40122],[-59.20448,-35.395],[-59.22656,-35.39339],[-59.23535,-35.38753],[-59.2431,-35.39144],[-59.26286,-35.39068],[-59.27507,-35.38096],[-59.27766,-35.37424],[-59.28732,-35.3717],[-59.29261,-35.3654],[-59.30596,-35.36561],[-59.30799,-35.36932],[-59.32252,-35.37468],[-59.3239,-35.36936],[-59.31804,-35.36429],[-59.32209,-35.35916],[-59.34275,-35.35558],[-59.35097,-35.34844],[-59.34899,-35.34418],[-59.35277,-35.34553],[-59.35318,-35.34945],[-59.36015,-35.35086],[-59.36762,-35.33789],[-59.38007,-35.33345],[-59.38273,-35.32844],[-59.3785,-35.31393],[-59.38699,-35.30455],[-59.38521,-35.29761],[-59.39268,-35.29554],[-59.39338,-35.29095],[-59.41531,-35.30066],[-59.4274,-35.29841],[-59.42979,-35.30322],[-59.43441,-35.30275],[-59.44177,-35.30812],[-59.44359,-35.30351],[-59.46362,-35.29891],[-59.46851,-35.30737],[-59.47734,-35.29985],[-59.47648,-35.29403],[-59.48033,-35.2873],[-59.49076,-35.29009],[-59.49452,-35.28682],[-59.50015,-35.28957],[-59.52181,-35.287],[-59.53575,-35.28189],[-59.53599,-35.27515],[-59.5451,-35.27352],[-59.54998,-35.26753],[-59.55253,-35.25494],[-59.35918,-35.15787],[-59.32177,-35.13624],[-59.32535,-35.13209],[-59.30175,-35.12011],[-59.29916,-35.12345],[-59.25145,-35.09828],[-59.24769,-35.06479],[-59.22134,-35.08509],[-59.14133,-35.01337],[-59.13679,-35.01681],[-59.07104,-34.96124],[-59.00239,-35.0138]]}},{"type":"Feature","properties":{"kind":"boundary"},"geometry":{"type":"LineString","coordinates":[[-58.43444,-34.70519],[-58.41327,-34.73286],[-58.38609,-34.73712],[-58.36668,-34.74555],[-58.35616,-34.74014],[-58.34696,-34.73934],[-58.33664,-34.7544],[-58.362,-34.76739],[-58.35868,-34.77135],[-58.40995,-34.79859],[-58.4051,-34.80457],[-58.43053,-34.81725],[-58.5008,-34.72299],[-58.4839,-34.73214],[-58.48452,-34.72757],[-58.44692,-34.68878],[-58.43444,-34.70519]]}},{"type":"Feature","properties":{"kind":"boundary"},"geometry":{"type":"LineString","coordinates":[[-59.17759,-34.38852],[-59.13228,-34.42327],[-59.12959,-34.42061],[-59.09765,-34.46432],[-59.07721,-34.45117],[-59.08021,-34.44422],[-59.07541,-34.44172],[-59.07591,-34.43534],[-59.07165,-34.43609],[-59.05627,-34.42821],[-59.01054,-34.48829],[-59.00068,-34.48342],[-58.9542,-34.54373],[-58.98719,-34.55986],[-58.98404,-34.56455],[-58.99263,-34.56858],[-58.9866,-34.57744],[-59.02554,-34.59281],[-59.03926,-34.58864],[-59.07099,-34.60439],[-59.05638,-34.61646],[-59.11533,-34.64447],[-59.11329,-34.64705],[-59.13608,-34.65886],[-59.09121,-34.71923],[-59.12095,-34.75437],[-59.1315,-34.76172],[-59.14535,-34.78327],[-59.16498,-34.80347],[-59.2559,-34.68558],[-59.24128,-34.67733],[-59.28123,-34.62585],[-59.26245,-34.62012],[-59.30484,-34.56477],[-59.33852,-34.50844],[-59.21772,-34.44656],[-59.23932,-34.4137],[-59.22482,-34.40546],[-59.2234,-34.40091],[-59.21269,-34.39518],[-59.20956,-34.38994],[-59.20608,-34.38994],[-59.19674,-34.37365],[-59.17759,-34.38852]]}},{"type":"Feature","properties":{"kind":"boundary"},"geometry":{"type":"LineString","coordinates":[[-57.71904,-35.35459],[-57.7268,-35.3493],[-57.74509,-35.37475],[-57.75867,-35.40528],[-57.79617,-35.44492],[-57.81452,-35.4419],[-57.82683,-35.42993],[-57.83267,-35.41554],[-57.85281,-35.41229],[-57.86243,-35.39977],[-57.87274,-35.39715],[-57.87392,-35.38589],[-57.88871,-35.39202],[-57.88847,-35.3847],[-57.90045,-35.38002],[-57.91291,-35.38184],[-57.91786,-35.37143],[-57.93641,-35.3762],[-57.94359,-35.37088],[-57.9472,-35.37195],[-57.95274,-35.3594],[-57.96804,-35.35461],[-57.97334,-35.34675],[-57.97936,-35.34469],[-57.9776,-35.33819],[-57.9854,-35.32847],[-57.9938,-35.33248],[-58.00287,-35.33277],[-58.00859,-35.34495],[-58.025,-35.35378],[-58.03584,-35.344],[-57.89014,-35.22214],[-57.96811,-35.15969],[-57.82096,-35.03314],[-57.71904,-34.94032]]}},{"type":"Feature","properties":{"kind":"boundary"},"geometry":{"type":"LineString","coordinates":[[-58.6848,-34.46615],[-58.64659,-34.50138],[-58.68851,-34.53001],[-58.69445,-34.52629],[-58.70127,-34.53275],[-58.71986,-34.5192],[-58.72919,-34.50818],[-58.76068,-34.49515],[-58.78454,-34.47607],[-58.7712,-34.46834],[-58.77019,-34.46484],[-58.7647,-34.46724],[-58.75621,-34.46241],[-58.75202,-34.46776],[-58.74412,-34.46355],[-58.74434,-34.45998],[-58.70556,-34.43931],[-58.6848,-34.46615]]}},{"type":"Feature","properties":{"kind":"boundary"},"geometry":{"type":"LineString","coordinates":[[-58.86029,-34.68521],[-58.86458,-34.69587],[-58.86089,-34.70133],[-58.83037,-34.72435],[-58.77036,-34.76172],[-58.70705,-34.81127],[-58.71967,-34.81794],[-58.73448,-34.81722],[-58.7445,-34.82527],[-58.77404,-34.82866],[-58.74986,-34.84737],[-58.76249,-34.85842],[-58.69411,-34.91219],[-58.72769,-34.92421],[-58.73836,-34.93632],[-58.75107,-34.94075],[-58.76534,-34.959],[-58.79114,-34.95532],[-58.85909,-34.90405],[-58.84527,-34.89171],[-58.93619,-34.81783],[-58.9515,-34.83118],[-59.03373,-34.76693],[-59.0295,-34.76112],[-59.02177,-34.75825],[-59.00326,-34.76398],[-58.99829,-34.76279],[-58.99026,-34.7544],[-58.96644,-34.73927],[-58.95663,-34.72754],[-58.95265,-34.71666],[-58.93534,-34.70373],[-58.92114,-34.69933],[-58.91344,-34.70095],[-58.9123,-34.69812],[-58.88864,-34.69679],[-58.86988,-34.68968],[-58.8637,-34.68337],[-58.86029,-34.68521]]}},{"type":"Feature","properties":{"kind":"boundary"},"geometry":{"type":"LineString","coordinates":[[-59.29807,-34.57363],[-59.26245,-34.62012],[-59.28123,-34.62585],[-59.24128,-34.67733],[-59.2559,-34.68558],[-59.16809,-34.79942],[-59.19219,-34.8121],[-59.20452,-34.79623],[-59.27871,-34.83435],[-59.28944,-34.82168],[-59.32054,-34.83685],[-59.31656,-34.84262],[-59.37317,-34.89113],[-59.40873,-34.84242],[-59.46651,-34.87259],[-59.49683,-34.84939],[-59.52259,-34.82879],[-59.49133,-34.80294],[-59.53195,-34.76988],[-59.52721,-34.76369],[-59.63216,-34.68887]]}},{"type":"Feature","properties":{"kind":"boundary"},"geometry":{"type":"LineString","coordinates":[[-59.63216,-34.61478],[-59.56882,-34.56059],[-59.52366,-34.59689],[-59.50843,-34.58346],[-59.4828,-34.57072],[-59.47222,-34.5772],[-59.33852,-34.50846],[-59.29807,-34.57363]]}},{"type":"Feature","properties":{"kind":"boundary"},"geometry":{"type":"LineString","coordinates":[[-58.69829,-34.66026],[-58.66101,-34.69235],[-58.64097,-34.70454],[-58.64299,-34.70961],[-58.63615,-34.71503],[-58.6496,-34.72654],[-58.65501,-34.72232],[-58.67546,-34.73929],[-58.65792,-34.7533],[-58.67361,-34.76633],[-58.68194,-34.7595],[-58.70388,-34.77871],[-58.7284,-34.75931],[-58.75025,-34.77759],[-58.77036,-34.76172],[-58.83037,-34.72435],[-58.8643,-34.69842],[-58.86029,-34.68521],[-58.83434,-34.68616],[-58.82367,-34.68257],[-58.81831,-34.68559],[-58.80965,-34.68073],[-58.80965,-34.67731],[-58.75755,-34.66048],[-58.73174,-34.64256],[-58.72902,-34.63478],[-58.69829,-34.66026]]}},{"type":"Feature","properties":{"kind":"boundary"},"geometry":{"type":"LineString","coordinates":[[-58.77086,-35.27391],[-58.74675,-35.2527],[-58.67832,-35.30447],[-58.70743,-35.33509],[-58.67415,-35.36038],[-58.66313,-35.35495],[-58.47049,-35.51194],[-58.55281,-35.57955],[-58.56871,-35.5959],[-58.49936,-35.64514],[-58.50644,-35.6505],[-58.48652,-35.70694],[-58.4935,-35.74296],[-58.5017,-35.75333],[-58.51206,-35.75111],[-58.51665,-35.72947],[-58.52453,-35.72248],[-58.53678,-35.72566],[-58.53775,-35.74058],[-58.54136,-35.7463],[-58.55315,-35.74702],[-58.56093,-35.74437],[-58.5758,-35.74933],[-58.5829,-35.74678],[-58.5876,-35.75007],[-58.59509,-35.7501],[-58.60863,-35.74111],[-58.62209,-35.75023],[-58.62906,-35.75108],[-58.63558,-35.74313],[-58.65042,-35.74623],[-58.6581,-35.74416],[-58.66171,-35.72458],[-58.67061,-35.72976],[-58.67879,-35.72544],[-58.68079,-35.72911],[-58.68603,-35.72969],[-58.71602,-35.72173],[-58.72413,-35.72759],[-58.73801,-35.73115],[-58.75072,-35.75353],[-58.75784,-35.75673],[-58.76518,-35.75542],[-58.76324,-35.7413],[-58.78411,-35.71561],[-58.788,-35.70097],[-58.80038,-35.6954],[-58.80504,-35.68971],[-58.814,-35.69111],[-58.81823,-35.6871],[-58.8339,-35.68771],[-58.83658,-35.68251],[-58.84314,-35.68185],[-58.84488,-35.67679],[-58.83509,-35.66604],[-58.8392,-35.65631],[-58.84375,-35.65079],[-58.858,-35.6494],[-58.87657,-35.6401],[-58.8883,-35.62112],[-58.88227,-35.61641],[-58.88347,-35.61108],[-58.87811,-35.60445],[-58.88186,-35.59313],[-58.89262,-35.59567],[-58.8991,-35.59087],[-58.9076,-35.59409],[-58.90984,-35.59796],[-58.90315,-35.60501],[-58.9113,-35.6055],[-58.92739,-35.62018],[-58.93681,-35.62342],[-58.94854,-35.62266],[-58.95797,-35.61717],[-58.97394,-35.58998],[-58.99771,-35.59608],[-59.00788,-35.59169],[-59.02251,-35.57331],[-59.03334,-35.56819],[-59.03665,-35.55163],[-59.04516,-35.55422],[-59.04894,-35.55235],[-59.05038,-35.54163],[-59.04856,-35.53459],[-59.04457,-35.53379],[-59.04737,-35.52839],[-59.02673,-35.52184],[-59.01085,-35.50989],[-59.01719,-35.49972],[-59.01354,-35.48213],[-59.00934,-35.47971],[-59.01894,-35.47582],[-59.01863,-35.46803],[-59.03047,-35.47222],[-59.03524,-35.46786],[-59.03443,-35.46038],[-59.0388,-35.46181],[-59.05008,-35.45631],[-59.05601,-35.45807],[-59.06719,-35.45294],[-59.06543,-35.45013],[-59.0847,-35.44707],[-59.09558,-35.43361],[-59.1072,-35.43123],[-59.10537,-35.42675],[-59.12058,-35.43071],[-59.05885,-35.37473],[-59.0542,-35.37815],[-59.02541,-35.35228],[-59.00584,-35.36692],[-58.9795,-35.34234],[-58.96546,-35.33864],[-58.96216,-35.34191],[-58.95066,-35.34108],[-58.94443,-35.3344],[-58.93576,-35.33413],[-58.92511,-35.3417],[-58.81179,-35.24238],[-58.77086,-35.27391]]}},{"type":"Feature","properties":{"kind":"boundary"},"geometry":{"type":"LineString","coordinates":[[-58.81109,-34.52105],[-58.77694,-34.55792],[-58.71337,-34.60564],[-58.72353,-34.6193],[-58.72493,-34.6301],[-58.73162,-34.63782],[-58.73174,-34.64256],[-58.75755,-34.66048],[-58.80965,-34.67731],[-58.80965,-34.68073],[-58.81831,-34.68559],[-58.82367,-34.68257],[-58.83434,-34.68616],[-58.86029,-34.68521],[-58.88447,-34.6688],[-58.88096,-34.63218],[-58.88431,-34.6272],[-58.86411,-34.61688],[-58.89095,-34.57981],[-58.86392,-34.56437],[-58.8475,-34.54917],[-58.82377,-34.50837],[-58.81109,-34.52105]]}},{"type":"Feature","properties":{"kind":"boundary"},"geometry":{"type":"LineString","coordinates":[[-58.61603,-34.58871],[-58.59276,-34.60796],[-58.5888,-34.60609],[-58.57224,-34.62874],[-58.56671,-34.6259],[-58.55611,-34.6347],[-58.57092,-34.63837],[-58.57026,-34.64135],[-58.58188,-34.64317],[-58.58071,-34.6494],[-58.64097,-34.70454],[-58.66738,-34.68599],[-58.65349,-34.63161],[-58.62038,-34.63142],[-58.61603,-34.58871]]}},{"type":"Feature","properties":{"kind":"boundary"},"geometry":{"type":"LineString","coordinates":[[-59.19262,-34.81154],[-59.16809,-34.79942],[-59.16497,-34.80348],[-59.21873,-34.85257],[-59.15516,-34.90135],[-59.08733,-34.94533],[-59.07111,-34.96133],[-59.13679,-35.01681],[-59.14133,-35.01337],[-59.22134,-35.08509],[-59.24769,-35.06479],[-59.25145,-35.09828],[-59.29916,-35.12345],[-59.30175,-35.12011],[-59.32535,-35.13209],[-59.32177,-35.13624],[-59.35918,-35.15787],[-59.55253,-35.25494],[-59.55185,-35.24704],[-59.55523,-35.24324],[-59.54949,-35.23888],[-59.54014,-35.22129],[-59.54904,-35.21344],[-59.54301,-35.20435],[-59.57188,-35.18491],[-59.57374,-35.17806],[-59.58227,-35.17776],[-59.58752,-35.18763],[-59.60345,-35.18764],[-59.62107,-35.20056],[-59.63216,-35.19721]]}},{"type":"Feature","properties":{"kind":"boundary"},"geometry":{"type":"LineString","coordinates":[[-59.63216,-35.01986],[-59.60518,-34.99771],[-59.63216,-34.96043]]}},{"type":"Feature","properties":{"kind":"boundary"},"geometry":{"type":"LineString","coordinates":[[-59.63216,-34.95619],[-59.40873,-34.84242],[-59.37317,-34.89113],[-59.31656,-34.84262],[-59.32054,-34.83685],[-59.28944,-34.82168],[-59.27871,-34.83435],[-59.20452,-34.79623],[-59.19262,-34.81154]]}},{"type":"Feature","properties":{"kind":"boundary"},"geometry":{"type":"LineString","coordinates":[[-58.90127,-34.3111],[-58.84299,-34.3872],[-58.83937,-34.38633],[-58.81699,-34.4154],[-58.79817,-34.41027],[-58.78832,-34.39967],[-58.77767,-34.40427],[-58.73731,-34.45642],[-58.75202,-34.46776],[-58.75621,-34.46241],[-58.7647,-34.46724],[-58.77019,-34.46484],[-58.7712,-34.46834],[-58.78469,-34.47616],[-58.82169,-34.45196],[-58.81378,-34.46413],[-58.81115,-34.48574],[-58.81352,-34.49115],[-58.81971,-34.49643],[-58.81916,-34.50169],[-58.82999,-34.52247],[-58.83984,-34.53294],[-58.8475,-34.54917],[-58.86392,-34.56437],[-58.88507,-34.57705],[-58.92842,-34.5162],[-58.96189,-34.53374],[-59.00068,-34.48342],[-59.01054,-34.48829],[-59.05627,-34.42821],[-59.04275,-34.42115],[-59.04427,-34.41924],[-59.03998,-34.41699],[-59.04215,-34.41418],[-59.02513,-34.40197],[-59.02858,-34.39771],[-58.99298,-34.37929],[-58.99179,-34.37347],[-58.98401,-34.369],[-58.99323,-34.35808],[-58.98026,-34.35064],[-58.92424,-34.41697],[-58.91967,-34.41477],[-58.92376,-34.39332],[-58.92119,-34.39163],[-58.92307,-34.38641],[-58.92004,-34.38577],[-58.92219,-34.38307],[-58.91724,-34.38047],[-58.9182,-34.3722],[-58.92121,-34.37155],[-58.90774,-34.35995],[-58.9158,-34.35723],[-58.91798,-34.35231],[-58.91358,-34.34478],[-58.91706,-34.34325],[-58.91434,-34.33598],[-58.91835,-34.33449],[-58.91548,-34.33273],[-58.91735,-34.328],[-58.91621,-34.32528],[-58.9118,-34.32616],[-58.91493,-34.32072],[-58.90936,-34.32016],[-58.90809,-34.31239],[-58.9024,-34.31139],[-58.9034,-34.30868],[-58.90127,-34.3111]]}},{"type":"Feature","properties":{"kind":"boundary"},"geometry":{"type":"LineString","coordinates":[[-58.40467,-34.89856],[-58.39644,-34.90988],[-58.3463,-34.88503],[-58.3421,-34.89071],[-58.31246,-34.87484],[-58.29718,-34.89511],[-58.2809,-34.90761],[-58.27461,-34.91706],[-58.29406,-34.91532],[-58.37801,-34.95579],[-58.37762,-34.95049],[-58.39462,-34.95888],[-58.38986,-34.96542],[-58.40165,-34.97439],[-58.40833,-34.97787],[-58.41196,-34.97346],[-58.42162,-34.98191],[-58.43038,-34.97806],[-58.4687,-35.01127],[-58.47026,-34.99767],[-58.46305,-34.95145],[-58.49191,-34.93017],[-58.49186,-34.92763],[-58.45325,-34.90121],[-58.4224,-34.88619],[-58.41304,-34.87358],[-58.40879,-34.87946],[-58.41594,-34.88302],[-58.40467,-34.89856]]}},{"type":"Feature","properties":{"kind":"boundary"},"geometry":{"type":"LineString","coordinates":[[-57.71904,-35.47984],[-57.72757,-35.47578],[-57.74539,-35.47346],[-57.74341,-35.46826],[-57.75496,-35.46026],[-57.7669,-35.46326],[-57.76931,-35.45787],[-57.76751,-35.44311],[-57.77063,-35.43982],[-57.7796,-35.43983],[-57.7855,-35.44372],[-57.7964,-35.44525],[-57.75867,-35.40528],[-57.74509,-35.37475],[-57.7268,-35.3493],[-57.71904,-35.35459]]}},{"type":"Feature","properties":{"kind":"boundary"},"geometry":{"type":"LineString","coordinates":[[-58.26292,-34.68757],[-58.23399,-34.70283],[-58.23015,-34.70138],[-58.23123,-34.70568],[-58.21125,-34.71755],[-58.1982,-34.73564],[-58.19465,-34.73569],[-58.26746,-34.77365],[-58.27164,-34.76883],[-58.29845,-34.78344],[-58.30411,-34.80116],[-58.34696,-34.73934],[-58.27964,-34.67864],[-58.26292,-34.68757]]}},{"type":"Feature","properties":{"kind":"boundary"},"geometry":{"type":"LineString","coordinates":[[-59.49216,-35.28948],[-59.48033,-35.2873],[-59.47648,-35.29403],[-59.47734,-35.29985],[-59.46851,-35.30737],[-59.46241,-35.29874],[-59.44359,-35.30351],[-59.44177,-35.30812],[-59.43441,-35.30275],[-59.42979,-35.30322],[-59.4274,-35.29841],[-59.41531,-35.30066],[-59.39338,-35.29095],[-59.39268,-35.29554],[-59.38521,-35.29761],[-59.38699,-35.30455],[-59.3785,-35.31393],[-59.38273,-35.32844],[-59.38007,-35.33345],[-59.36762,-35.33789],[-59.36015,-35.35086],[-59.35318,-35.34945],[-59.35277,-35.34553],[-59.34899,-35.34418],[-59.35097,-35.34844],[-59.34275,-35.35558],[-59.32209,-35.35916],[-59.31804,-35.36429],[-59.3239,-35.36936],[-59.32252,-35.37468],[-59.30799,-35.36932],[-59.30596,-35.36561],[-59.29261,-35.3654],[-59.28732,-35.3717],[-59.27766,-35.37424],[-59.27507,-35.38096],[-59.26286,-35.39068],[-59.2431,-35.39144],[-59.23535,-35.38753],[-59.22656,-35.39339],[-59.20448,-35.395],[-59.1853,-35.40122],[-59.18742,-35.40473],[-59.18251,-35.40901],[-59.17717,-35.40694],[-59.17652,-35.40351],[-59.16724,-35.4059],[-59.16289,-35.41626],[-59.1646,-35.42057],[-59.154,-35.41968],[-59.15185,-35.42402],[-59.1283,-35.43635],[-59.12249,-35.43073],[-59.10537,-35.42675],[-59.1072,-35.43123],[-59.09558,-35.43361],[-59.08305,-35.44795],[-59.06543,-35.45013],[-59.06719,-35.45294],[-59.05601,-35.45807],[-59.05008,-35.45631],[-59.0388,-35.46181],[-59.03443,-35.46038],[-59.03524,-35.46786],[-59.02963,-35.47269],[-59.01863,-35.46803],[-59.01894,-35.47582],[-59.00934,-35.47971],[-59.01354,-35.48213],[-59.01719,-35.49972],[-59.01085,-35.50989],[-59.02673,-35.52184],[-59.04737,-35.52839],[-59.04457,-35.53379],[-59.04856,-35.53459],[-59.05038,-35.54163],[-59.0483,-35.55292],[-59.03648,-35.55181],[-59.03298,-35.56178],[-59.03475,-35.56748],[-59.02542,-35.58026],[-59.03512,-35.61048],[-59.03804,-35.61311],[-59.04659,-35.61338],[-59.05987,-35.60438],[-59.06852,-35.60801],[-59.08004,-35.60683],[-59.08154,-35.6163],[-59.09811,-35.6184],[-59.10285,-35.62191],[-59.12333,-35.6193],[-59.13417,-35.62483],[-59.14301,-35.62562],[-59.14903,-35.63543],[-59.14347,-35.64382],[-59.14627,-35.64692],[-59.14173,-35.65393],[-59.14358,-35.66037],[-59.13839,-35.66925],[-59.13719,-35.68448],[-59.13188,-35.68667],[-59.13108,-35.69818],[-59.13961,-35.69942],[-59.15556,-35.71129],[-59.15846,-35.70687],[-59.16662,-35.70623],[-59.17488,-35.71201],[-59.17309,-35.71425],[-59.17958,-35.72171],[-59.17573,-35.74114],[-59.18145,-35.75551],[-59.32663,-35.64271],[-59.3308,-35.6463],[-59.41261,-35.58613],[-59.34967,-35.52944],[-59.35578,-35.53166],[-59.36281,-35.52902],[-59.36015,-35.53472],[-59.37075,-35.53794],[-59.37696,-35.53688],[-59.37843,-35.53156],[-59.39055,-35.5283],[-59.39458,-35.53107],[-59.39944,-35.52992],[-59.40607,-35.52267],[-59.43738,-35.51353],[-59.43911,-35.50987],[-59.47094,-35.49348],[-59.49552,-35.49308],[-59.50602,-35.4757],[-59.51547,-35.4723],[-59.51613,-35.46417],[-59.52448,-35.4564],[-59.52809,-35.45871],[-59.53835,-35.45648],[-59.551,-35.46219],[-59.5588,-35.45944],[-59.57399,-35.46095],[-59.5768,-35.4563],[-59.58921,-35.45686],[-59.59976,-35.46271],[-59.61113,-35.45701],[-59.61517,-35.45838],[-59.62052,-35.45138],[-59.6289,-35.4631],[-59.63216,-35.46357]]}},{"type":"Feature","properties":{"kind":"boundary"},"geometry":{"type":"LineString","coordinates":[[-59.63216,-35.3246],[-59.58576,-35.35996],[-59.50606,-35.28926],[-59.49521,-35.28678],[-59.49216,-35.28948]]}},{"type":"Feature","properties":{"kind":"boundary"},"geometry":{"type":"LineString","coordinates":[[-59.61517,-35.45838],[-59.61113,-35.45701],[-59.59888,-35.46268],[-59.58921,-35.45686],[-59.5768,-35.4563],[-59.57399,-35.46095],[-59.5588,-35.45944],[-59.551,-35.46219],[-59.53835,-35.45648],[-59.52809,-35.45871],[-59.52448,-35.4564],[-59.51613,-35.46417],[-59.51547,-35.4723],[-59.50602,-35.4757],[-59.49552,-35.49308],[-59.47094,-35.49348],[-59.43911,-35.50987],[-59.43738,-35.51353],[-59.40607,-35.52267],[-59.39944,-35.52992],[-59.39458,-35.53107],[-59.39055,-35.5283],[-59.37843,-35.53156],[-59.37696,-35.53688],[-59.37075,-35.53794],[-59.36015,-35.53472],[-59.36281,-35.52902],[-59.35578,-35.53166],[-59.34967,-35.52944],[-59.41261,-35.58613],[-59.3308,-35.6463],[-59.32663,-35.64271],[-59.18148,-35.75536],[-59.18335,-35.76286],[-59.19078,-35.76732],[-59.20812,-35.77103],[-59.21084,-35.7757],[-59.22249,-35.77908]]}},{"type":"Feature","properties":{"kind":"boundary"},"geometry":{"type":"LineString","coordinates":[[-59.63216,-35.46357],[-59.6289,-35.4631],[-59.62108,-35.45151],[-59.61517,-35.45838]]}},{"type":"Feature","properties":{"kind":"boundary"},"geometry":{"type":"LineString","coordinates":[[-59.36073,-34.24338],[-59.29868,-34.26429],[-59.31035,-34.28943],[-59.27826,-34.30819],[-59.27459,-34.30493],[-59.1926,-34.37054],[-59.20608,-34.38994],[-59.20956,-34.38994],[-59.21269,-34.39518],[-59.2234,-34.40091],[-59.22482,-34.40546],[-59.23932,-34.4137],[-59.21772,-34.44656],[-59.47222,-34.5772],[-59.4828,-34.57072],[-59.50168,-34.57992],[-59.52366,-34.59689],[-59.56882,-34.56059],[-59.63216,-34.61478]]}},{"type":"Feature","properties":{"kind":"boundary"},"geometry":{"type":"LineString","coordinates":[[-59.63216,-34.40745],[-59.61885,-34.39664],[-59.6066,-34.40614],[-59.54267,-34.35055],[-59.4892,-34.32097],[-59.49073,-34.31892],[-59.48063,-34.31356],[-59.4783,-34.31586],[-59.46826,-34.31061],[-59.46626,-34.31323],[-59.43782,-34.29909],[-59.43197,-34.30667],[-59.4238,-34.30261],[-59.4273,-34.297],[-59.41584,-34.29093],[-59.42261,-34.28265],[-59.41187,-34.27626],[-59.41948,-34.26861],[-59.39618,-34.26291],[-59.38257,-34.24643],[-59.37677,-34.2441],[-59.37478,-34.23873],[-59.36073,-34.24338]]}},{"type":"Feature","properties":{"kind":"boundary"},"geometry":{"type":"LineString","coordinates":[[-59.32196,-33.9963],[-59.31435,-34.00574],[-59.31452,-34.01479],[-59.30869,-34.01882],[-59.3011,-34.0441],[-59.3025,-34.06406],[-59.29769,-34.06661],[-59.29952,-34.06895],[-59.29332,-34.0699],[-59.28848,-34.07562],[-59.26856,-34.08461],[-59.2662,-34.09178],[-59.26847,-34.10164],[-59.27373,-34.10774],[-59.27288,-34.12397],[-59.27617,-34.12723],[-59.27271,-34.13312],[-59.27934,-34.14001],[-59.27957,-34.14597],[-59.28305,-34.14555],[-59.29887,-34.15788],[-59.3247,-34.16368],[-59.35811,-34.19492],[-59.3666,-34.19892],[-59.37811,-34.22606],[-59.37423,-34.23999],[-59.39618,-34.26291],[-59.41948,-34.26861],[-59.41187,-34.27626],[-59.42261,-34.28265],[-59.41584,-34.29093],[-59.4273,-34.297],[-59.4238,-34.30261],[-59.43197,-34.30667],[-59.43782,-34.29909],[-59.46626,-34.31323],[-59.46826,-34.31061],[-59.4783,-34.31586],[-59.48063,-34.31356],[-59.49073,-34.31892],[-59.4892,-34.32097],[-59.54267,-34.35055],[-59.6066,-34.40614],[-59.61885,-34.39664],[-59.63216,-34.40745]]}},{"type":"Feature","properties":{"kind":"boundary"},"geometry":{"type":"LineString","coordinates":[[-59.63216,-34.15848],[-59.62753,-34.15832],[-59.61541,-34.16693],[-59.6022,-34.16711],[-59.59459,-34.17173],[-59.58497,-34.1686],[-59.56209,-34.16797],[-59.55782,-34.16127],[-59.54332,-34.15213],[-59.54235,-34.14302],[-59.53524,-34.13019],[-59.52317,-34.11946],[-59.51091,-34.0994],[-59.46309,-34.13501],[-59.39554,-34.07451],[-59.40646,-34.06095],[-59.37564,-34.05657],[-59.33443,-34.03858],[-59.31822,-34.02066],[-59.32389,-33.99865],[-59.32196,-33.9963]]}},{"type":"Feature","properties":{"kind":"boundary"},"geometry":{"type":"LineString","coordinates":[[-58.36352,-34.02206],[-58.34499,-34.03841],[-58.35355,-34.05191],[-58.34864,-34.04901],[-58.3509,-34.05684],[-58.356,-34.05424],[-58.35905,-34.06225],[-58.36603,-34.0647],[-58.36267,-34.06989],[-58.36157,-34.09009],[-58.36583,-34.1128],[-58.35964,-34.12071],[-58.36678,-34.13236],[-58.37109,-34.14478],[-58.36871,-34.15192],[-58.37329,-34.15808],[-58.37109,-34.17169],[-58.35373,-34.1856],[-58.35397,-34.20464],[-58.36384,-34.21255],[-58.36806,-34.21023],[-58.36854,-34.2141],[-58.38543,-34.20987],[-58.38038,-34.22445],[-58.39347,-34.22439],[-58.39644,-34.22576],[-58.39352,-34.23016],[-58.4009,-34.22802],[-58.4015,-34.23028],[-58.38964,-34.23522],[-58.38865,-34.24027],[-58.4012,-34.25782],[-58.40911,-34.2583],[-58.42078,-34.2652],[-58.4317,-34.26562],[-58.43628,-34.263],[-58.43719,-34.26642],[-58.44269,-34.26642],[-58.45148,-34.26581],[-58.4527,-34.26331],[-58.4563,-34.27118],[-58.46271,-34.2738],[-58.478,-34.27313],[-58.49995,-34.26753],[-58.48686,-34.27955],[-58.50965,-34.2962],[-58.53034,-34.29486],[-58.54005,-34.29572],[-58.53971,-34.29838],[-58.5491,-34.29711],[-58.59724,-34.27765],[-58.64952,-34.2666],[-58.71215,-34.2489],[-58.71084,-34.2191],[-58.70164,-34.21369],[-58.69436,-34.20059],[-58.6914,-34.17243],[-58.7467,-34.16551],[-58.74679,-34.15441],[-58.75897,-34.15152],[-58.76456,-34.14412],[-58.76843,-34.13177],[-58.76385,-34.12647],[-58.80475,-34.08752],[-58.80403,-34.08078],[-58.79315,-34.07826],[-58.6753,-34.02547],[-58.66047,-34.03335],[-58.63787,-34.0393],[-58.60717,-34.03787],[-58.57862,-34.02716],[-58.55316,-34.02669],[-58.49251,-34.00646],[-58.4632,-34.00189],[-58.37892,-34.01223],[-58.36352,-34.02206]]}},{"type":"Feature","properties":{"kind":"boundary"},"geometry":{"type":"LineString","coordinates":[[-58.54505,-34.43073],[-58.52839,-34.44216],[-58.51617,-34.44332],[-58.51947,-34.44852],[-58.57792,-34.47603],[-58.6003,-34.49035],[-58.59906,-34.48565],[-58.60647,-34.48038],[-58.59927,-34.47441],[-58.59876,-34.46356],[-58.59446,-34.46007],[-58.59517,-34.44834],[-58.57951,-34.44447],[-58.56034,-34.43],[-58.55795,-34.42409],[-58.54505,-34.43073]]}},{"type":"Feature","properties":{"kind":"boundary"},"geometry":{"type":"LineString","coordinates":[[-58.28558,-34.22627],[-58.30084,-34.24002],[-58.30513,-34.22869],[-58.30589,-34.23707],[-58.30889,-34.23632],[-58.3115,-34.24506],[-58.32883,-34.24002],[-58.33339,-34.20871],[-58.32165,-34.19058],[-58.3116,-34.18796],[-58.28,-34.21061],[-58.27629,-34.2187],[-58.28558,-34.22627]]}},{"type":"Feature","properties":{"kind":"boundary"},"geometry":{"type":"LineString","coordinates":[[-58.24278,-34.24873],[-58.24629,-34.25361],[-58.24575,-34.26021],[-58.252,-34.26437],[-58.26598,-34.24897],[-58.26913,-34.25807],[-58.26151,-34.26895],[-58.2727,-34.27038],[-58.27817,-34.268],[-58.273,-34.2341],[-58.26795,-34.22574],[-58.24278,-34.24873]]}},{"type":"Feature","properties":{"kind":"boundary"},"geometry":{"type":"LineString","coordinates":[[-58.47694,-34.30336],[-58.47384,-34.30892],[-58.47843,-34.3092],[-58.47912,-34.31182],[-58.46787,-34.3167],[-58.47473,-34.32146],[-58.47504,-34.31715],[-58.47895,-34.32047],[-58.48736,-34.31768],[-58.5087,-34.30084],[-58.50032,-34.29489],[-58.48228,-34.29894],[-58.47694,-34.30336]]}},{"type":"Feature","properties":{"kind":"boundary"},"geometry":{"type":"LineString","coordinates":[[-58.332,-34.23168],[-58.33295,-34.25155],[-58.34265,-34.24536],[-58.34788,-34.23644],[-58.35235,-34.23697],[-58.35258,-34.23228],[-58.35009,-34.2337],[-58.35223,-34.22936],[-58.34771,-34.23299],[-58.35151,-34.22716],[-58.35032,-34.22264],[-58.33843,-34.213],[-58.3323,-34.21836],[-58.332,-34.23168]]}},{"type":"Feature","properties":{"kind":"boundary"},"geometry":{"type":"LineString","coordinates":[[-58.32001,-34.17653],[-58.31711,-34.18131],[-58.3307,-34.19481],[-58.33447,-34.19526],[-58.33625,-34.17591],[-58.32684,-34.16053],[-58.32001,-34.17653]]}},{"type":"Feature","properties":{"kind":"boundary"},"geometry":{"type":"LineString","coordinates":[[-58.25358,-34.20486],[-58.25065,-34.2128],[-58.25605,-34.21917],[-58.25081,-34.21908],[-58.24972,-34.2215],[-58.25334,-34.22993],[-58.26376,-34.22198],[-58.26733,-34.21089],[-58.26128,-34.20527],[-58.25358,-34.20486]]}},{"type":"Feature","properties":{"kind":"boundary"},"geometry":{"type":"LineString","coordinates":[[-58.29109,-34.26987],[-58.2958,-34.26716],[-58.29389,-34.26092],[-58.29642,-34.25574],[-58.28804,-34.23894],[-58.28233,-34.23732],[-58.28285,-34.25712],[-58.29109,-34.26987]]}},{"type":"Feature","properties":{"kind":"boundary"},"geometry":{"type":"LineString","coordinates":[[-58.28266,-34.23556],[-58.28852,-34.23818],[-58.29366,-34.24926],[-58.30022,-34.25164],[-58.29951,-34.24089],[-58.27729,-34.22166],[-58.28266,-34.23556]]}},{"type":"Feature","properties":{"kind":"boundary"},"geometry":{"type":"LineString","coordinates":[[-58.47666,-34.28535],[-58.46587,-34.28683],[-58.48382,-34.28847],[-58.47981,-34.28947],[-58.4854,-34.29013],[-58.48305,-34.29176],[-58.48682,-34.29756],[-58.50101,-34.2934],[-58.49131,-34.28425],[-58.47666,-34.28535]]}},{"type":"Feature","properties":{"kind":"boundary"},"geometry":{"type":"LineString","coordinates":[[-58.33111,-34.15181],[-58.33288,-34.1535],[-58.32597,-34.15775],[-58.33585,-34.1742],[-58.3421,-34.15129],[-58.33334,-34.14628],[-58.33111,-34.15181]]}},{"type":"Feature","properties":{"kind":"boundary"},"geometry":{"type":"LineString","coordinates":[[-58.35678,-34.11993],[-58.3522,-34.12737],[-58.35824,-34.14286],[-58.3635,-34.13228],[-58.36689,-34.13525],[-58.35869,-34.11892],[-58.35678,-34.11993]]}},{"type":"Feature","properties":{"kind":"boundary"},"geometry":{"type":"LineString","coordinates":[[-58.23321,-34.25373],[-58.23942,-34.25691],[-58.24341,-34.26822],[-58.24973,-34.26697],[-58.24084,-34.24802],[-58.23321,-34.25373]]}},{"type":"Feature","properties":{"kind":"boundary"},"geometry":{"type":"LineString","coordinates":[[-58.36862,-34.21708],[-58.3677,-34.22077],[-58.37698,-34.22226],[-58.37448,-34.22428],[-58.37698,-34.22544],[-58.38257,-34.21982],[-58.38355,-34.21223],[-58.36862,-34.21708]]}},{"type":"Feature","properties":{"kind":"boundary"},"geometry":{"type":"LineString","coordinates":[[-58.31671,-34.24744],[-58.31552,-34.25553],[-58.32153,-34.24899],[-58.32744,-34.24946],[-58.33266,-34.24608],[-58.33075,-34.24019],[-58.31671,-34.24744]]}},{"type":"Feature","properties":{"kind":"boundary"},"geometry":{"type":"LineString","coordinates":[[-58.35291,-34.07663],[-58.3492,-34.07742],[-58.34638,-34.09548],[-58.34845,-34.10076],[-58.35248,-34.09548],[-58.35291,-34.07663]]}},{"type":"Feature","properties":{"kind":"boundary"},"geometry":{"type":"LineString","coordinates":[[-58.46692,-34.29691],[-58.46964,-34.29894],[-58.46615,-34.3043],[-58.47026,-34.30569],[-58.4818,-34.29808],[-58.46993,-34.29418],[-58.46692,-34.29691]]}},{"type":"Feature","properties":{"kind":"boundary"},"geometry":{"type":"LineString","coordinates":[[-58.34344,-34.26617],[-58.3413,-34.27016],[-58.34782,-34.2764],[-58.34963,-34.26836],[-58.34591,-34.26717],[-58.34944,-34.26393],[-58.34991,-34.25432],[-58.34344,-34.26617]]}},{"type":"Feature","properties":{"kind":"boundary"},"geometry":{"type":"LineString","coordinates":[[-58.33966,-34.14892],[-58.33718,-34.13806],[-58.3349,-34.14505],[-58.33966,-34.14892]]}},{"type":"Feature","properties":{"kind":"boundary"},"geometry":{"type":"LineString","coordinates":[[-58.33244,-34.13533],[-58.33877,-34.13328],[-58.33734,-34.12981],[-58.33244,-34.13533]]}},{"type":"Feature","properties":{"kind":"boundary"},"geometry":{"type":"LineString","coordinates":[[-58.37523,-34.24495],[-58.37875,-34.2374],[-58.37523,-34.24495]]}},{"type":"Feature","properties":{"kind":"boundary"},"geometry":{"type":"LineString","coordinates":[[-58.47293,-34.28442],[-58.48077,-34.2821],[-58.47293,-34.28442]]}},{"type":"Feature","properties":{"kind":"boundary"},"geometry":{"type":"LineString","coordinates":[[-58.46635,-34.29492],[-58.46136,-34.29697],[-58.46635,-34.29492]]}},{"type":"Feature","properties":{"kind":"boundary"},"geometry":{"type":"LineString","coordinates":[[-58.38093,-34.23891],[-58.38154,-34.23684],[-58.38093,-34.23891]]}},{"type":"Feature","properties":{"kind":"boundary"},"geometry":{"type":"LineString","coordinates":[[-58.46377,-34.28592],[-58.46377,-34.28592]]}},{"type":"Feature","properties":{"kind":"boundary"},"geometry":{"type":"LineString","coordinates":[[-58.51416,-34.44353],[-58.51504,-34.447],[-58.50466,-34.44989],[-58.50076,-34.46058],[-58.49403,-34.46391],[-58.4919,-34.47124],[-58.48206,-34.47884],[-58.4794,-34.48976],[-58.53123,-34.51309],[-58.55376,-34.53021],[-58.6003,-34.49035],[-58.57792,-34.47603],[-58.51947,-34.44852],[-58.51416,-34.44353]]}},{"type":"Feature","properties":{"kind":"boundary"},"geometry":{"type":"LineString","coordinates":[[-58.6121,-34.52986],[-58.60636,-34.53453],[-58.61768,-34.5469],[-58.62638,-34.54676],[-58.64715,-34.56351],[-58.65838,-34.56619],[-58.66747,-34.57355],[-58.67086,-34.57279],[-58.68167,-34.58141],[-58.68454,-34.58822],[-58.68982,-34.58904],[-58.71337,-34.60564],[-58.77694,-34.55792],[-58.76149,-34.54711],[-58.75634,-34.55085],[-58.75322,-34.54888],[-58.7209,-34.51823],[-58.70127,-34.53275],[-58.69445,-34.52629],[-58.68913,-34.53016],[-58.64659,-34.50138],[-58.6121,-34.52986]]}},{"type":"Feature","properties":{"kind":"boundary"},"geometry":{"type":"LineString","coordinates":[[-58.31632,-34.92633],[-58.2882,-34.96504],[-58.30079,-34.97168],[-58.27717,-35.00942],[-58.2884,-35.01727],[-58.23627,-35.05828],[-58.33884,-35.14853],[-58.35271,-35.13786],[-58.4107,-35.18843],[-58.41482,-35.18543],[-58.4469,-35.21403],[-58.44337,-35.21717],[-58.46797,-35.23842],[-58.49575,-35.22112],[-58.53373,-35.19011],[-58.53696,-35.1922],[-58.55819,-35.17444],[-58.55377,-35.17127],[-58.57792,-35.15166],[-58.57932,-35.06835],[-58.60044,-35.05242],[-58.55439,-35.01143],[-58.55639,-35.0075],[-58.5492,-34.97982],[-58.55317,-34.97628],[-58.53428,-34.96153],[-58.53102,-34.96414],[-58.49191,-34.93017],[-58.46305,-34.95145],[-58.47026,-34.99767],[-58.4687,-35.01127],[-58.43038,-34.97806],[-58.42162,-34.98191],[-58.41196,-34.97346],[-58.40833,-34.97787],[-58.38986,-34.96542],[-58.39462,-34.95888],[-58.37762,-34.95049],[-58.37801,-34.95579],[-58.31632,-34.92633]]}},{"type":"Feature","properties":{"kind":"boundary"},"geometry":{"type":"LineString","coordinates":[[-59.63216,-34.68887],[-59.52721,-34.76369],[-59.53195,-34.76988],[-59.49133,-34.80294],[-59.52259,-34.82879],[-59.46651,-34.87259],[-59.63216,-34.95619]]}},{"type":"Feature","properties":{"kind":"boundary"},"geometry":{"type":"LineString","coordinates":[[-58.53971,-34.29838],[-58.53876,-34.30571],[-58.51892,-34.30443],[-58.49469,-34.32367],[-58.48499,-34.33459],[-58.45412,-34.38802],[-58.46002,-34.38573],[-58.46649,-34.38983],[-58.47563,-34.39059],[-58.47563,-34.39506],[-58.48106,-34.39601],[-58.48334,-34.40429],[-58.48163,-34.41362],[-58.49571,-34.4121],[-58.48836,-34.43408],[-58.49054,-34.43862],[-58.50396,-34.42284],[-58.4996,-34.43416],[-58.50207,-34.44015],[-58.52215,-34.44391],[-58.55795,-34.42409],[-58.56034,-34.43],[-58.57951,-34.44447],[-58.59517,-34.44834],[-58.59446,-34.46007],[-58.59876,-34.46356],[-58.59927,-34.47441],[-58.60647,-34.48038],[-58.59906,-34.48565],[-58.60094,-34.49309],[-58.59834,-34.49817],[-58.60634,-34.53454],[-58.67821,-34.47465],[-58.73463,-34.40246],[-58.71591,-34.39254],[-58.72136,-34.39008],[-58.71462,-34.38823],[-58.70533,-34.37297],[-58.72062,-34.36329],[-58.69039,-34.34718],[-58.68603,-34.35121],[-58.67981,-34.34569],[-58.65438,-34.27253],[-58.64952,-34.2666],[-58.6083,-34.27443],[-58.5491,-34.29711],[-58.53971,-34.29838]]}},{"type":"Feature","properties":{"kind":"boundary"},"geometry":{"type":"LineString","coordinates":[[-58.46894,-34.32657],[-58.45865,-34.33096],[-58.45678,-34.34457],[-58.4498,-34.34786],[-58.44566,-34.35509],[-58.45159,-34.3539],[-58.4539,-34.34919],[-58.44271,-34.36506],[-58.44998,-34.377],[-58.45435,-34.37666],[-58.46524,-34.36412],[-58.48641,-34.32944],[-58.48584,-34.32655],[-58.46894,-34.32657]]}},{"type":"Feature","properties":{"kind":"boundary"},"geometry":{"type":"LineString","coordinates":[[-58.44563,-34.34213],[-58.45079,-34.34662],[-58.45634,-34.34366],[-58.45341,-34.33068],[-58.44405,-34.33942],[-58.44563,-34.34213]]}},{"type":"Feature","properties":{"kind":"boundary"},"geometry":{"type":"LineString","coordinates":[[-58.44508,-34.32686],[-58.44134,-34.32803],[-58.44141,-34.33625],[-58.45008,-34.3283],[-58.44508,-34.32686]]}},{"type":"Feature","properties":{"kind":"boundary"},"geometry":{"type":"LineString","coordinates":[[-58.44285,-34.33797],[-58.4505,-34.32915],[-58.44456,-34.33284],[-58.44285,-34.33797]]}},{"type":"Feature","properties":{"kind":"boundary"},"geometry":{"type":"LineString","coordinates":[[-58.43796,-34.32679],[-58.43965,-34.33174],[-58.44137,-34.32694],[-58.43796,-34.32679]]}},{"type":"Feature","properties":{"kind":"boundary"},"geometry":{"type":"LineString","coordinates":[[-58.6199,-34.54657],[-58.56231,-34.59141],[-58.52297,-34.59756],[-58.53147,-34.61597],[-58.52921,-34.65464],[-58.56671,-34.6259],[-58.57224,-34.62874],[-58.5888,-34.60609],[-58.59276,-34.60796],[-58.64634,-34.56297],[-58.62638,-34.54676],[-58.6199,-34.54657]]}},{"type":"Feature","properties":{"kind":"boundary"},"geometry":{"type":"LineString","coordinates":[[-59.63216,-35.19721],[-59.62107,-35.20056],[-59.60345,-35.18764],[-59.58752,-35.18763],[-59.58227,-35.17776],[-59.57374,-35.17806],[-59.57188,-35.18491],[-59.54301,-35.20435],[-59.54904,-35.21344],[-59.54014,-35.22129],[-59.54949,-35.23888],[-59.55523,-35.24324],[-59.55185,-35.24704],[-59.5541,-35.25206],[-59.54998,-35.26753],[-59.5451,-35.27352],[-59.53599,-35.27515],[-59.53698,-35.28039],[-59.53392,-35.28283],[-59.50606,-35.28926],[-59.58576,-35.35996],[-59.63216,-35.3246]]}},{"type":"Feature","properties":{"kind":"boundary"},"geometry":{"type":"LineString","coordinates":[[-58.47929,-34.4944],[-58.47469,-34.50961],[-58.46841,-34.51333],[-58.46773,-34.52294],[-58.45956,-34.52778],[-58.46415,-34.53339],[-58.5008,-34.54953],[-58.50996,-34.56921],[-58.52461,-34.55044],[-58.52981,-34.53733],[-58.53778,-34.54416],[-58.55376,-34.53021],[-58.53123,-34.51309],[-58.4794,-34.48976],[-58.47929,-34.4944]]}},{"type":"Feature","properties":{"kind":"boundary"},"geometry":{"type":"LineString","coordinates":[[-58.89394,-33.89791],[-58.86843,-33.93651],[-58.85487,-33.94721],[-58.8372,-33.95375],[-58.83803,-33.95602],[-58.93348,-33.95737],[-58.955,-33.96395],[-58.96605,-33.96058],[-59.00054,-34.08785],[-59.00952,-34.09907],[-58.9775,-34.11328],[-58.97278,-34.1193],[-58.97331,-34.1291],[-59.1021,-34.19734],[-59.1029,-34.20012],[-59.23877,-34.17971],[-59.23716,-34.17181],[-59.31234,-34.16104],[-59.29887,-34.15788],[-59.28305,-34.14555],[-59.27957,-34.14597],[-59.27934,-34.14001],[-59.27271,-34.13312],[-59.27617,-34.12723],[-59.27288,-34.12397],[-59.27373,-34.10774],[-59.26847,-34.10164],[-59.2662,-34.09178],[-59.26856,-34.08461],[-59.28848,-34.07562],[-59.29332,-34.0699],[-59.29952,-34.06895],[-59.29769,-34.06661],[-59.3025,-34.06406],[-59.3011,-34.0441],[-59.30849,-34.01927],[-59.31452,-34.01479],[-59.31435,-34.00574],[-59.33456,-33.98115],[-59.33185,-33.97991],[-59.33866,-33.9654],[-59.33846,-33.9585],[-59.34559,-33.9524],[-59.34101,-33.94803],[-59.34591,-33.9451],[-59.34694,-33.94097],[-59.34413,-33.94003],[-59.34714,-33.93503],[-59.34088,-33.92538],[-59.33267,-33.9254],[-59.32359,-33.93118],[-59.30981,-33.92412],[-59.29734,-33.93184],[-59.28335,-33.93029],[-59.27142,-33.93268],[-59.25874,-33.94121],[-59.25828,-33.93546],[-59.25209,-33.93051],[-59.22838,-33.92503],[-59.22775,-33.92011],[-59.23921,-33.89791]]}},{"type":"Feature","properties":{"kind":"boundary"},"geometry":{"type":"LineString","coordinates":[[-58.42596,-33.89791],[-58.42354,-33.91667],[-58.405,-33.955],[-58.37667,-34],[-58.34499,-34.0384],[-58.36823,-34.01792],[-58.37892,-34.01223],[-58.4632,-34.00189],[-58.49251,-34.00646],[-58.55316,-34.02669],[-58.57862,-34.02716],[-58.60717,-34.03787],[-58.63049,-34.03977],[-58.65048,-34.03668],[-58.67072,-34.0285],[-58.68402,-34.01929],[-58.73352,-33.96649],[-58.76374,-33.94531],[-58.77771,-33.94263],[-58.81561,-33.95459],[-58.8306,-33.9553],[-58.85487,-33.94721],[-58.87128,-33.93341],[-58.89394,-33.89791]]}},{"type":"Feature","properties":{"kind":"boundary"},"geometry":{"type":"LineString","coordinates":[[-58.45535,-34.52776],[-58.44868,-34.53734],[-58.44404,-34.53616],[-58.43603,-34.54045],[-58.42961,-34.54888],[-58.42421,-34.54927],[-58.4256,-34.55227],[-58.40943,-34.55668],[-58.40365,-34.56375],[-58.39684,-34.56512],[-58.39295,-34.57202],[-58.38342,-34.57617],[-58.3913,-34.57038],[-58.38142,-34.56834],[-58.37815,-34.57278],[-58.38359,-34.57339],[-58.37552,-34.57392],[-58.37077,-34.57662],[-58.3761,-34.57752],[-58.37434,-34.57871],[-58.36532,-34.57963],[-58.36904,-34.58174],[-58.36164,-34.58116],[-58.36616,-34.58353],[-58.35991,-34.58412],[-58.36356,-34.58748],[-58.35947,-34.58809],[-58.3679,-34.59003],[-58.36435,-34.59426],[-58.36733,-34.59142],[-58.36792,-34.59754],[-58.35665,-34.59488],[-58.34685,-34.60236],[-58.33978,-34.61485],[-58.34526,-34.61875],[-58.33837,-34.61871],[-58.33698,-34.62245],[-58.34034,-34.62316],[-58.33515,-34.62707],[-58.33937,-34.62898],[-58.34422,-34.62634],[-58.34132,-34.62898],[-58.34533,-34.62867],[-58.34515,-34.63227],[-58.35705,-34.6394],[-58.35745,-34.64542],[-58.37405,-34.65719],[-58.38455,-34.65799],[-58.39273,-34.66267],[-58.41342,-34.65881],[-58.42379,-34.66225],[-58.46121,-34.70541],[-58.52888,-34.65463],[-58.53151,-34.61551],[-58.50077,-34.54946],[-58.46353,-34.5334],[-58.45835,-34.52667],[-58.45535,-34.52776]]}}]}