{
  "type": "FeatureCollection",
  "bbox": [
    -59.43216,
    -35.57908,
    -57.91904,
    -34.09791
  ],
  "features": [
    {
      "type": "Feature",
      "properties": {
        "slug": "saenz-gonzalez-catan",
        "linea": "belgrano-sur",
        "stations": [
          "Dr. A. Sáenz Viad.",
          "Villa Soldati",
          "Pte. Arturo Illia",
          "Villa Lugano",
          "Villa Madero",
          "Marinos del Fournier",
          "Tapiales",
          "Dr. Ing. Castello",
          "Querandí",
          "Laferrere",
          "María Eva Duarte",
          "Independencia",
          "González Catán"
        ],
        "offsets": [
          0,
          3294,
          4113,
          7022,
          8688,
          10246,
          12197,
          13350,
          16006,
          21821,
          23439,
          25075,
          28026
        ]
      },
      "geometry": {
        "type": "LineString",
        "coordinates": [
          [
            -58.41584,
            -34.64905
          ],
          [
            -58.41739,
            -34.64901
          ],
          [
            -58.42386,
            -34.6469
          ],
          [
            -58.42612,
            -34.64701
          ],
          [
            -58.42858,
            -34.64898
          ],
          [
            -58.43075,
            -34.65503
          ],
          [
            -58.43263,
            -34.65811
          ],
          [
            -58.43437,
            -34.65947
          ],
          [
            -58.46171,
            -34.67093
          ],
          [
            -58.47149,
            -34.67342
          ],
          [
            -58.47528,
            -34.67545
          ],
          [
            -58.47976,
            -34.68077
          ],
          [
            -58.48118,
            -34.6814
          ],
          [
            -58.49442,
            -34.68467
          ],
          [
            -58.51217,
            -34.69228
          ],
          [
            -58.51645,
            -34.69592
          ],
          [
            -58.51686,
            -34.69775
          ],
          [
            -58.51558,
            -34.69946
          ],
          [
            -58.50553,
            -34.70692
          ],
          [
            -58.50518,
            -34.70919
          ],
          [
            -58.50702,
            -34.71096
          ],
          [
            -58.51206,
            -34.7125
          ],
          [
            -58.58744,
            -34.75232
          ],
          [
            -58.64023,
            -34.76732
          ],
          [
            -58.64685,
            -34.77171
          ]
        ]
      }
    },
    {
      "type": "Feature",
      "properties": {
        "slug": "tapiales-marinos-c-gral-belgrano",
        "linea": "belgrano-sur",
        "stations": [
          "Dr. A. Sáenz Viad.",
          "Villa Soldati",
          "Pte. Arturo Illia",
          "Villa Lugano",
          "Villa Madero",
          "Marinos del Fournier",
          "Tapiales",
          "Aldo Bonzi",
          "Sánchez de Mendeville",
          "José Ingenieros",
          "Justo Villegas",
          "Isidro Casanova",
          "Rafael Castillo",
          "Merlo Gómez",
          "Libertad",
          "Marinos C. G Belgrano"
        ],
        "offsets": [
          0,
          3294,
          4113,
          7022,
          8688,
          10246,
          12199,
          13786,
          14761,
          15918,
          17275,
          20548,
          24160,
          26096,
          29709,
          34213
        ]
      },
      "geometry": {
        "type": "LineString",
        "coordinates": [
          [
            -58.41584,
            -34.64905
          ],
          [
            -58.41739,
            -34.64901
          ],
          [
            -58.42386,
            -34.6469
          ],
          [
            -58.42612,
            -34.64701
          ],
          [
            -58.42858,
            -34.64898
          ],
          [
            -58.43075,
            -34.65503
          ],
          [
            -58.43263,
            -34.65811
          ],
          [
            -58.43437,
            -34.65947
          ],
          [
            -58.46171,
            -34.67093
          ],
          [
            -58.47149,
            -34.67342
          ],
          [
            -58.47528,
            -34.67545
          ],
          [
            -58.47976,
            -34.68077
          ],
          [
            -58.48118,
            -34.6814
          ],
          [
            -58.49442,
            -34.68467
          ],
          [
            -58.51217,
            -34.69228
          ],
          [
            -58.51645,
            -34.69592
          ],
          [
            -58.51686,
            -34.69775
          ],
          [
            -58.51597,
            -34.69914
          ],
          [
            -58.50696,
            -34.70593
          ],
          [
            -58.50662,
            -34.70764
          ],
          [
            -58.50847,
            -34.7093
          ],
          [
            -58.52127,
            -34.71237
          ],
          [
            -58.53156,
            -34.71157
          ],
          [
            -58.68925,
            -34.69186
          ],
          [
            -58.69144,
            -34.69233
          ],
          [
            -58.73082,
            -34.70873
          ]
        ]
      }
    },
    {
      "type": "Feature",
      "properties": {
        "slug": "gonzalez-catan-marcos-paz-villars-lozano",
        "linea": "belgrano-sur",
        "stations": [
          "González Catán",
          "20 de Junio",
          "Marcos Paz",
          "Villars",
          "Lozano"
        ],
        "offsets": [
          0,
          8628,
          17208,
          29021,
          38813
        ]
      },
      "geometry": {
        "type": "LineString",
        "coordinates": [
          [
            -58.64685,
            -34.77171
          ],
          [
            -58.65422,
            -34.77689
          ],
          [
            -58.6561,
            -34.77749
          ],
          [
            -58.6768,
            -34.77674
          ],
          [
            -58.69681,
            -34.78163
          ],
          [
            -58.72492,
            -34.7802
          ],
          [
            -58.82545,
            -34.78268
          ],
          [
            -58.82757,
            -34.78382
          ],
          [
            -58.84168,
            -34.80276
          ],
          [
            -58.84603,
            -34.8065
          ],
          [
            -58.84865,
            -34.80704
          ],
          [
            -58.85046,
            -34.80671
          ],
          [
            -58.85702,
            -34.80355
          ],
          [
            -58.86033,
            -34.80317
          ],
          [
            -58.9386,
            -34.82905
          ],
          [
            -59.036,
            -34.866
          ]
        ]
      }
    },
    {
      "type": "Feature",
      "properties": {
        "slug": "merlo-lobos",
        "linea": "sarmiento",
        "stations": [
          "Merlo",
          "Km 34,5",
          "A. Ferrari",
          "Mariano Acosta",
          "Maquinista R. Cal",
          "Marcos Paz",
          "Zamudio",
          "Hornos",
          "Las Heras"
        ],
        "offsets": [
          0,
          3926,
          7299,
          9695,
          12338,
          17344,
          27074,
          31559,
          36224
        ]
      },
      "geometry": {
        "type": "LineString",
        "coordinates": [
          [
            -58.72811,
            -34.6644
          ],
          [
            -58.73971,
            -34.66271
          ],
          [
            -58.74272,
            -34.66293
          ],
          [
            -58.74734,
            -34.66448
          ],
          [
            -58.75057,
            -34.66713
          ],
          [
            -58.94454,
            -34.92809
          ]
        ]
      }
    },
    {
      "type": "Feature",
      "properties": {
        "slug": "moreno-mercedes",
        "linea": "sarmiento",
        "stations": [
          "Moreno",
          "La Reja",
          "Fco. Álvarez",
          "Ing. PP. Marín",
          "Las Malvinas",
          "Gral. Rodríguez",
          "La Fraternidad",
          "Lezica y Torrezuri",
          "Univ. Luján",
          "Luján",
          "Jáuregui",
          "Olivera",
          "Gowland",
          "Mercedes"
        ],
        "offsets": [
          0,
          3614,
          6289,
          9943,
          12638,
          15651,
          19824,
          25434,
          28369,
          30080,
          36848,
          44916,
          54156,
          61599
        ]
      },
      "geometry": {
        "type": "LineString",
        "coordinates": [
          [
            -58.79021,
            -34.65038
          ],
          [
            -58.86772,
            -34.62875
          ],
          [
            -59.09264,
            -34.57618
          ],
          [
            -59.0961,
            -34.5758
          ],
          [
            -59.10227,
            -34.57673
          ],
          [
            -59.14043,
            -34.58957
          ],
          [
            -59.15075,
            -34.59384
          ],
          [
            -59.15995,
            -34.59609
          ],
          [
            -59.28884,
            -34.63891
          ],
          [
            -59.33314,
            -34.64379
          ],
          [
            -59.41128,
            -34.6598
          ],
          [
            -59.41737,
            -34.66001
          ],
          [
            -59.43216,
            -34.65772
          ]
        ]
      }
    },
    {
      "type": "Feature",
      "properties": {
        "slug": "retiro-villa-rosa",
        "linea": "belgrano-norte",
        "stations": [
          "Retiro (BN)",
          "Saldías",
          "Ciudad Universitaria",
          "Aristóbulo del Valle",
          "Padilla",
          "Florida",
          "Munro",
          "Carapachay",
          "Villa Adelina",
          "Boulogne Sur Mer",
          "Vicealmirante Montes",
          "Don Torcuato",
          "Adolfo Sourdeaux",
          "Villa de Mayo",
          "Los Polvorines",
          "Pablo Nogués",
          "Grand Bourg",
          "Tierras Altas",
          "Tortuguitas",
          "Manuel Alberti",
          "Del Viso",
          "Cecilia Grierson",
          "Villa Rosa"
        ],
        "offsets": [
          0,
          2807,
          8910,
          12211,
          14470,
          15819,
          16966,
          18257,
          19267,
          23717,
          28779,
          30781,
          33034,
          34339,
          35716,
          36952,
          38900,
          40396,
          42324,
          44233,
          46262,
          49339,
          54166
        ]
      },
      "geometry": {
        "type": "LineString",
        "coordinates": [
          [
            -58.37427,
            -34.59017
          ],
          [
            -58.39936,
            -34.57566
          ],
          [
            -58.39764,
            -34.57717
          ],
          [
            -58.40698,
            -34.5677
          ],
          [
            -58.41464,
            -34.56351
          ],
          [
            -58.42705,
            -34.55463
          ],
          [
            -58.45174,
            -34.5409
          ],
          [
            -58.45815,
            -34.53831
          ],
          [
            -58.46354,
            -34.53449
          ],
          [
            -58.46592,
            -34.53397
          ],
          [
            -58.47099,
            -34.53499
          ],
          [
            -58.477,
            -34.53703
          ],
          [
            -58.49137,
            -34.54383
          ],
          [
            -58.49483,
            -34.54447
          ],
          [
            -58.49811,
            -34.54426
          ],
          [
            -58.50018,
            -34.54369
          ],
          [
            -58.52626,
            -34.53046
          ],
          [
            -58.54032,
            -34.52813
          ],
          [
            -58.54622,
            -34.52373
          ],
          [
            -58.54115,
            -34.5277
          ],
          [
            -58.53735,
            -34.52879
          ],
          [
            -58.54116,
            -34.52782
          ],
          [
            -58.56514,
            -34.50871
          ],
          [
            -58.56831,
            -34.50752
          ],
          [
            -58.6434,
            -34.50257
          ],
          [
            -58.68178,
            -34.50345
          ],
          [
            -58.68759,
            -34.50219
          ],
          [
            -58.80604,
            -34.44919
          ],
          [
            -58.829,
            -34.43642
          ],
          [
            -58.86961,
            -34.41739
          ]
        ]
      }
    },
    {
      "type": "Feature",
      "properties": {
        "slug": "federico-lacroze-general-lemos",
        "linea": "urquiza",
        "stations": [
          "Federico Lacroze",
          "José Artigas",
          "Pedro Arata",
          "Dr. Francisco Beiró",
          "El Libertador",
          "Antonio Devoto",
          "Coronel Francisco Lynch",
          "Fernández Moreno",
          "Lourdes",
          "Tropezón",
          "José María Bosch",
          "Martín Coronado",
          "Pablo Podestá",
          "Jorge Newbery",
          "Rubén Darío",
          "Ejército de los Andes",
          "Juan B. de la Salle",
          "Sargento Barruffaldi",
          "Capitán Lozano",
          "Teniente Agneta",
          "Campo de Mayo",
          "Sargento Cabral",
          "General Lemos"
        ],
        "offsets": [
          0,
          1164,
          2178,
          3817,
          4627,
          5329,
          6608,
          7625,
          8713,
          9857,
          11027,
          12746,
          14344,
          15539,
          16347,
          17826,
          18739,
          20545,
          21719,
          22817,
          23672,
          24784,
          25471
        ]
      },
      "geometry": {
        "type": "LineString",
        "coordinates": [
          [
            -58.45617,
            -34.58653
          ],
          [
            -58.45983,
            -34.58544
          ],
          [
            -58.46204,
            -34.5861
          ],
          [
            -58.46768,
            -34.59134
          ],
          [
            -58.46982,
            -34.59227
          ],
          [
            -58.49309,
            -34.59298
          ],
          [
            -58.52346,
            -34.59731
          ],
          [
            -58.57414,
            -34.58958
          ],
          [
            -58.63631,
            -34.58725
          ],
          [
            -58.63782,
            -34.58599
          ],
          [
            -58.6403,
            -34.58001
          ],
          [
            -58.64348,
            -34.57487
          ],
          [
            -58.70058,
            -34.53315
          ]
        ]
      }
    },
    {
      "type": "Feature",
      "properties": {
        "slug": "constitucion-bosques-via-quilmes",
        "linea": "roca",
        "stations": [
          "Constitución",
          "Santillán y Kosteki",
          "Sarandí",
          "Villa Domínico",
          "Wilde",
          "Don Bosco",
          "Bernal",
          "Quilmes",
          "Ezpeleta",
          "Berazategui",
          "Villa España",
          "Ranelagh",
          "Sourigues",
          "Bosques"
        ],
        "offsets": [
          0,
          3567,
          7376,
          9693,
          11172,
          12688,
          14284,
          16799,
          20740,
          23418,
          25298,
          27121,
          29304,
          31818
        ]
      },
      "geometry": {
        "type": "LineString",
        "coordinates": [
          [
            -58.38058,
            -34.63035
          ],
          [
            -58.38072,
            -34.64554
          ],
          [
            -58.37501,
            -34.6686
          ],
          [
            -58.37341,
            -34.67056
          ],
          [
            -58.37092,
            -34.67164
          ],
          [
            -58.36533,
            -34.67153
          ],
          [
            -58.36271,
            -34.67224
          ],
          [
            -58.35715,
            -34.67493
          ],
          [
            -58.34732,
            -34.67839
          ],
          [
            -58.34162,
            -34.67951
          ],
          [
            -58.32119,
            -34.69447
          ],
          [
            -58.31079,
            -34.69772
          ],
          [
            -58.29947,
            -34.70237
          ],
          [
            -58.29138,
            -34.70462
          ],
          [
            -58.26854,
            -34.71469
          ],
          [
            -58.25605,
            -34.73081
          ],
          [
            -58.25185,
            -34.73429
          ],
          [
            -58.23739,
            -34.75014
          ],
          [
            -58.1962,
            -34.76993
          ],
          [
            -58.19491,
            -34.77143
          ],
          [
            -58.19458,
            -34.77369
          ],
          [
            -58.19532,
            -34.77531
          ],
          [
            -58.21924,
            -34.81846
          ],
          [
            -58.22136,
            -34.82047
          ],
          [
            -58.22363,
            -34.82109
          ],
          [
            -58.23028,
            -34.81953
          ]
        ]
      }
    },
    {
      "type": "Feature",
      "properties": {
        "slug": "constitucion-bosques-via-temperley",
        "linea": "roca",
        "stations": [
          "Constitución",
          "Hipólito Yrigoyen",
          "Santillán y Kosteki",
          "Gerli",
          "Lanús",
          "Remedios de Escalada",
          "Banfield",
          "Lomas de Zamora",
          "Temperley",
          "José Mármol",
          "Rafael Calzada",
          "Claypole",
          "Dante Ardigó",
          "Florencio Varela",
          "Zeballos",
          "Bosques"
        ],
        "offsets": [
          0,
          2605,
          3567,
          6288,
          8812,
          10996,
          12900,
          14825,
          16606,
          19078,
          21154,
          23130,
          26504,
          29115,
          30729,
          33313
        ]
      },
      "geometry": {
        "type": "LineString",
        "coordinates": [
          [
            -58.38058,
            -34.63035
          ],
          [
            -58.38072,
            -34.64554
          ],
          [
            -58.37584,
            -34.66639
          ],
          [
            -58.39206,
            -34.71255
          ],
          [
            -58.39755,
            -34.76355
          ],
          [
            -58.39587,
            -34.78287
          ],
          [
            -58.39446,
            -34.78688
          ],
          [
            -58.39294,
            -34.78846
          ],
          [
            -58.38933,
            -34.79014
          ],
          [
            -58.29318,
            -34.81085
          ],
          [
            -58.28543,
            -34.81157
          ],
          [
            -58.2579,
            -34.81076
          ],
          [
            -58.23028,
            -34.81953
          ]
        ]
      }
    },
    {
      "type": "Feature",
      "properties": {
        "slug": "bosques-gutierrez",
        "linea": "roca",
        "stations": [
          "Bosques",
          "Santa Sofía",
          "J. M. Gutiérrez"
        ],
        "offsets": [
          0,
          1669,
          4386
        ]
      },
      "geometry": {
        "type": "LineString",
        "coordinates": [
          [
            -58.23028,
            -34.81953
          ],
          [
            -58.18559,
            -34.834
          ]
        ]
      }
    },
    {
      "type": "Feature",
      "properties": {
        "slug": "constitucion-ezeiza",
        "linea": "roca",
        "stations": [
          "Constitución",
          "Hipólito Yrigoyen",
          "Santillán y Kosteki",
          "Gerli",
          "Lanús",
          "Remedios de Escalada",
          "Banfield",
          "Lomas de Zamora",
          "Temperley",
          "Turdera",
          "Llavallol",
          "Luis Guillón",
          "Monte Grande",
          "El Jagüel",
          "Ezeiza"
        ],
        "offsets": [
          0,
          2605,
          3567,
          6288,
          8812,
          10996,
          12900,
          14825,
          16606,
          19456,
          21471,
          23327,
          25626,
          28823,
          32184
        ]
      },
      "geometry": {
        "type": "LineString",
        "coordinates": [
          [
            -58.38058,
            -34.63035
          ],
          [
            -58.38072,
            -34.64554
          ],
          [
            -58.37584,
            -34.66639
          ],
          [
            -58.39206,
            -34.71255
          ],
          [
            -58.39751,
            -34.76283
          ],
          [
            -58.39517,
            -34.78896
          ],
          [
            -58.39618,
            -34.79214
          ],
          [
            -58.39731,
            -34.79321
          ],
          [
            -58.40072,
            -34.79433
          ],
          [
            -58.43672,
            -34.79774
          ],
          [
            -58.44542,
            -34.80157
          ],
          [
            -58.46941,
            -34.81422
          ],
          [
            -58.47976,
            -34.8208
          ],
          [
            -58.52282,
            -34.85408
          ]
        ]
      }
    },
    {
      "type": "Feature",
      "properties": {
        "slug": "ezeiza-canuelas",
        "linea": "roca",
        "stations": [
          "Temperley",
          "Ezeiza",
          "Hospital Ezeiza",
          "Unión Ferroviaria",
          "Tristán Suárez",
          "Carlos Spegazzini",
          "Máximo Paz",
          "Vicente Casares",
          "Alejandro Petión",
          "Apeadero Kloosterman",
          "Ricardo Levene",
          "Hospital Cuenca Alta",
          "Cañuelas"
        ],
        "offsets": [
          0,
          15581,
          17262,
          18182,
          21462,
          24601,
          28383,
          32241,
          35180,
          36898,
          42002,
          42702,
          47286
        ]
      },
      "geometry": {
        "type": "LineString",
        "coordinates": [
          [
            -58.39625,
            -34.77719
          ],
          [
            -58.39518,
            -34.78959
          ],
          [
            -58.39584,
            -34.79161
          ],
          [
            -58.39731,
            -34.79321
          ],
          [
            -58.39948,
            -34.79408
          ],
          [
            -58.43672,
            -34.79774
          ],
          [
            -58.44908,
            -34.80349
          ],
          [
            -58.47026,
            -34.81473
          ],
          [
            -58.48418,
            -34.82383
          ],
          [
            -58.60239,
            -34.91621
          ],
          [
            -58.60534,
            -34.91888
          ],
          [
            -58.63814,
            -34.95606
          ],
          [
            -58.64176,
            -34.95866
          ],
          [
            -58.69611,
            -34.99032
          ],
          [
            -58.69816,
            -34.99273
          ],
          [
            -58.70129,
            -35.00094
          ],
          [
            -58.70292,
            -35.00281
          ],
          [
            -58.73362,
            -35.0308
          ],
          [
            -58.73406,
            -35.03297
          ],
          [
            -58.73293,
            -35.03806
          ],
          [
            -58.73323,
            -35.04083
          ],
          [
            -58.75433,
            -35.05936
          ]
        ]
      }
    },
    {
      "type": "Feature",
      "properties": {
        "slug": "constitucion-glew-a-korn",
        "linea": "roca",
        "stations": [
          "Constitución",
          "Hipólito Yrigoyen",
          "Santillán y Kosteki",
          "Gerli",
          "Lanús",
          "Remedios de Escalada",
          "Banfield",
          "Lomas de Zamora",
          "Temperley",
          "Adrogué",
          "Burzaco",
          "Longchamps",
          "Glew",
          "Guernica",
          "Alejandro Korn"
        ],
        "offsets": [
          0,
          2605,
          3567,
          6288,
          8812,
          10997,
          12901,
          14826,
          16607,
          18912,
          21959,
          25807,
          29054,
          32321,
          39337
        ]
      },
      "geometry": {
        "type": "LineString",
        "coordinates": [
          [
            -58.38058,
            -34.63035
          ],
          [
            -58.38072,
            -34.64554
          ],
          [
            -58.37584,
            -34.66639
          ],
          [
            -58.39186,
            -34.71148
          ],
          [
            -58.39755,
            -34.76573
          ],
          [
            -58.37377,
            -34.98077
          ]
        ]
      }
    },
    {
      "type": "Feature",
      "properties": {
        "slug": "constitucion-la-plata",
        "linea": "roca",
        "stations": [
          "Constitución",
          "Santillán y Kosteki",
          "Sarandí",
          "Villa Domínico",
          "Wilde",
          "Don Bosco",
          "Bernal",
          "Quilmes",
          "Ezpeleta",
          "Berazategui",
          "Plátanos",
          "Hudson",
          "Pereyra",
          "Villa Elisa",
          "City Bell",
          "Gonnet",
          "Ringuelet",
          "Tolosa",
          "La Plata"
        ],
        "offsets": [
          0,
          3567,
          7375,
          9692,
          11171,
          12687,
          14283,
          16798,
          20739,
          23417,
          27452,
          29131,
          36690,
          39024,
          42500,
          45756,
          47173,
          50201,
          52279
        ]
      },
      "geometry": {
        "type": "LineString",
        "coordinates": [
          [
            -58.38058,
            -34.63035
          ],
          [
            -58.38072,
            -34.64554
          ],
          [
            -58.37501,
            -34.6686
          ],
          [
            -58.37288,
            -34.67089
          ],
          [
            -58.37092,
            -34.67164
          ],
          [
            -58.36533,
            -34.67153
          ],
          [
            -58.36271,
            -34.67224
          ],
          [
            -58.35715,
            -34.67493
          ],
          [
            -58.34732,
            -34.67839
          ],
          [
            -58.34162,
            -34.67951
          ],
          [
            -58.32119,
            -34.69447
          ],
          [
            -58.31079,
            -34.69772
          ],
          [
            -58.29947,
            -34.70237
          ],
          [
            -58.29138,
            -34.70462
          ],
          [
            -58.26854,
            -34.71469
          ],
          [
            -58.25605,
            -34.73081
          ],
          [
            -58.25185,
            -34.73429
          ],
          [
            -58.2368,
            -34.75058
          ],
          [
            -58.17557,
            -34.77979
          ],
          [
            -58.14458,
            -34.79721
          ],
          [
            -58.0834,
            -34.84558
          ],
          [
            -58.03339,
            -34.86996
          ],
          [
            -58.00729,
            -34.88136
          ],
          [
            -58.00437,
            -34.88222
          ],
          [
            -58.00048,
            -34.88238
          ],
          [
            -57.9897,
            -34.87951
          ],
          [
            -57.98672,
            -34.8796
          ],
          [
            -57.98204,
            -34.88103
          ],
          [
            -57.95099,
            -34.9033
          ]
        ]
      }
    },
    {
      "type": "Feature",
      "properties": {
        "slug": "temperley-haedo",
        "linea": "roca",
        "stations": [
          "Temperley",
          "Hospital Español",
          "Santa Catalina",
          "Juan XXIII",
          "KM 34",
          "P. Turner",
          "Agustín de Elía",
          "Tablada",
          "San Justo",
          "Ingeniero S. Brian",
          "Haedo"
        ],
        "offsets": [
          0,
          1816,
          4769,
          5950,
          9594,
          10994,
          14893,
          17647,
          20986,
          23362,
          25657
        ]
      },
      "geometry": {
        "type": "LineString",
        "coordinates": [
          [
            -58.39625,
            -34.77719
          ],
          [
            -58.39603,
            -34.78046
          ],
          [
            -58.3969,
            -34.78361
          ],
          [
            -58.39916,
            -34.78578
          ],
          [
            -58.40228,
            -34.78683
          ],
          [
            -58.40502,
            -34.78685
          ],
          [
            -58.41125,
            -34.78551
          ],
          [
            -58.43248,
            -34.78432
          ],
          [
            -58.43515,
            -34.78311
          ],
          [
            -58.4705,
            -34.73659
          ],
          [
            -58.54445,
            -34.68065
          ],
          [
            -58.55161,
            -34.67691
          ],
          [
            -58.56098,
            -34.67005
          ],
          [
            -58.56309,
            -34.66817
          ],
          [
            -58.56714,
            -34.6626
          ],
          [
            -58.58826,
            -34.64647
          ],
          [
            -58.59222,
            -34.64497
          ]
        ]
      }
    },
    {
      "type": "Feature",
      "properties": {
        "slug": "a-korn-chascomus",
        "linea": "roca",
        "stations": [
          "Alejandro Korn",
          "Domselaar",
          "Cnel Brandsen",
          "Jeppener",
          "Altamirano",
          "Gándara",
          "Chascomús"
        ],
        "offsets": [
          0,
          12749,
          24909,
          37877,
          48117,
          59223,
          77397
        ]
      },
      "geometry": {
        "type": "LineString",
        "coordinates": [
          [
            -58.37377,
            -34.98077
          ],
          [
            -58.37229,
            -34.99251
          ],
          [
            -58.36872,
            -34.99929
          ],
          [
            -58.2855,
            -35.0748
          ],
          [
            -58.28288,
            -35.07817
          ],
          [
            -58.22802,
            -35.17496
          ],
          [
            -58.20344,
            -35.21435
          ],
          [
            -58.20267,
            -35.22026
          ],
          [
            -58.20814,
            -35.24119
          ],
          [
            -58.20802,
            -35.24697
          ],
          [
            -58.19562,
            -35.28606
          ],
          [
            -58.17038,
            -35.33151
          ],
          [
            -58.03852,
            -35.53491
          ],
          [
            -58.03475,
            -35.53862
          ],
          [
            -58.03058,
            -35.541
          ],
          [
            -58.01806,
            -35.5439
          ],
          [
            -58.0127,
            -35.54622
          ],
          [
            -57.99002,
            -35.56331
          ],
          [
            -57.98542,
            -35.56906
          ],
          [
            -57.98239,
            -35.57908
          ]
        ]
      }
    },
    {
      "type": "Feature",
      "properties": {
        "slug": "canuelas-monte",
        "linea": "roca",
        "stations": [
          "Cañuelas",
          "La Noria",
          "Abbott",
          "Monte"
        ],
        "offsets": [
          0,
          12552,
          25565,
          42962
        ]
      },
      "geometry": {
        "type": "LineString",
        "coordinates": [
          [
            -58.75433,
            -35.05936
          ],
          [
            -58.7707,
            -35.07325
          ],
          [
            -58.77344,
            -35.0761
          ],
          [
            -58.77532,
            -35.08041
          ],
          [
            -58.79483,
            -35.20902
          ],
          [
            -58.79477,
            -35.227
          ],
          [
            -58.82095,
            -35.40147
          ],
          [
            -58.82118,
            -35.40838
          ],
          [
            -58.81764,
            -35.43683
          ]
        ]
      }
    },
    {
      "type": "Feature",
      "properties": {
        "slug": "tren-universitario",
        "linea": "roca",
        "stations": [
          "La Plata",
          "Arquitectura",
          "Informática",
          "Medicina",
          "Periodismo",
          "Diagonal 73",
          "Policlínico",
          "Avenida 7",
          "Circunvalación",
          "Meridiano V",
          "Hospital San Juan de Dios"
        ],
        "offsets": [
          0,
          774,
          1292,
          2466,
          2947,
          3965,
          4583,
          5543,
          6324,
          6844,
          7844
        ]
      },
      "geometry": {
        "type": "LineString",
        "coordinates": [
          [
            -57.95099,
            -34.9033
          ],
          [
            -57.94823,
            -34.90506
          ],
          [
            -57.94568,
            -34.90547
          ],
          [
            -57.93765,
            -34.90315
          ],
          [
            -57.93535,
            -34.90353
          ],
          [
            -57.92546,
            -34.91091
          ],
          [
            -57.92036,
            -34.91654
          ],
          [
            -57.91904,
            -34.92015
          ],
          [
            -57.91963,
            -34.92279
          ],
          [
            -57.92102,
            -34.92503
          ],
          [
            -57.94521,
            -34.94712
          ]
        ]
      }
    },
    {
      "type": "Feature",
      "properties": {
        "slug": "once-moreno",
        "linea": "sarmiento",
        "stations": [
          "Once",
          "Caballito",
          "Flores",
          "Floresta",
          "Villa Luro",
          "Liniers",
          "Ciudadela",
          "Ramos Mejía",
          "Haedo",
          "Morón",
          "Castelar",
          "Ituzaingó",
          "S.A. de Padua",
          "Merlo",
          "Paso del Rey",
          "Moreno"
        ],
        "offsets": [
          0,
          3573,
          5810,
          7287,
          9182,
          11417,
          12874,
          15007,
          17926,
          20461,
          22555,
          24931,
          27984,
          30716,
          33909,
          36620
        ]
      },
      "geometry": {
        "type": "LineString",
        "coordinates": [
          [
            -58.40756,
            -34.60859
          ],
          [
            -58.41736,
            -34.60883
          ],
          [
            -58.42152,
            -34.60987
          ],
          [
            -58.459,
            -34.62572
          ],
          [
            -58.48773,
            -34.63422
          ],
          [
            -58.51944,
            -34.63837
          ],
          [
            -58.54003,
            -34.63989
          ],
          [
            -58.55985,
            -34.63981
          ],
          [
            -58.59401,
            -34.6448
          ],
          [
            -58.59222,
            -34.64497
          ],
          [
            -58.60676,
            -34.64628
          ],
          [
            -58.61741,
            -34.64818
          ],
          [
            -58.62633,
            -34.64857
          ],
          [
            -58.63906,
            -34.65105
          ],
          [
            -58.67602,
            -34.66253
          ],
          [
            -58.70855,
            -34.66685
          ],
          [
            -58.71332,
            -34.66674
          ],
          [
            -58.75173,
            -34.66086
          ],
          [
            -58.79021,
            -34.65038
          ]
        ]
      }
    },
    {
      "type": "Feature",
      "properties": {
        "slug": "retiro-pilar-dr-cabred",
        "linea": "san-martin",
        "stations": [
          "Retiro (LSM)",
          "Palermo",
          "Villa Crespo",
          "La Paternal",
          "Villa del Parque",
          "Devoto",
          "Saenz Peña",
          "Santos Lugares",
          "Caseros",
          "El Palomar",
          "Hurlingham",
          "William Morris",
          "Bella Vista",
          "Muñiz",
          "San Miguel",
          "José C. Paz",
          "Sol y Verde",
          "Derqui",
          "Villa Astolfi",
          "Pilar",
          "Manzanares",
          "Dr. Cabred"
        ],
        "offsets": [
          0,
          6237,
          8831,
          10625,
          13099,
          14874,
          16251,
          17449,
          19604,
          22477,
          26226,
          28844,
          31901,
          34138,
          35336,
          39754,
          44286,
          48420,
          52194,
          55269,
          64646,
          72099
        ]
      },
      "geometry": {
        "type": "LineString",
        "coordinates": [
          [
            -58.37418,
            -34.58886
          ],
          [
            -58.39523,
            -34.57795
          ],
          [
            -58.40039,
            -34.57607
          ],
          [
            -58.40543,
            -34.5709
          ],
          [
            -58.4078,
            -34.56933
          ],
          [
            -58.41077,
            -34.56822
          ],
          [
            -58.41465,
            -34.56786
          ],
          [
            -58.41866,
            -34.56865
          ],
          [
            -58.42166,
            -34.5704
          ],
          [
            -58.42805,
            -34.5804
          ],
          [
            -58.43723,
            -34.58805
          ],
          [
            -58.45066,
            -34.59443
          ],
          [
            -58.45793,
            -34.59632
          ],
          [
            -58.46509,
            -34.59631
          ],
          [
            -58.47595,
            -34.60007
          ],
          [
            -58.51134,
            -34.6026
          ],
          [
            -58.57778,
            -34.60507
          ],
          [
            -58.60607,
            -34.60445
          ],
          [
            -58.69398,
            -34.55891
          ],
          [
            -58.70888,
            -34.5468
          ],
          [
            -58.71933,
            -34.54061
          ],
          [
            -58.74577,
            -34.52126
          ],
          [
            -58.74884,
            -34.51957
          ],
          [
            -58.91889,
            -34.46528
          ],
          [
            -58.97008,
            -34.45578
          ],
          [
            -58.98002,
            -34.4526
          ],
          [
            -58.99439,
            -34.44968
          ],
          [
            -59.00045,
            -34.44988
          ],
          [
            -59.0051,
            -34.45138
          ],
          [
            -59.07566,
            -34.48782
          ]
        ]
      }
    },
    {
      "type": "Feature",
      "properties": {
        "slug": "retiro-jose-leon-suarez",
        "linea": "mitre",
        "stations": [
          "Retiro (LGM)",
          "3 de febrero",
          "Ministro Carranza",
          "Colegiales",
          "Belgrano R",
          "L.M.Drago",
          "General Urquiza",
          "Pueyrredón",
          "Miguelete",
          "San Martín",
          "San Andrés",
          "Malaver",
          "Villa Ballester",
          "Chilavert",
          "J.L. Suárez"
        ],
        "offsets": [
          0,
          5623,
          6561,
          7913,
          9330,
          10921,
          11997,
          13452,
          14808,
          16403,
          17823,
          18803,
          19823,
          21223,
          22382
        ]
      },
      "geometry": {
        "type": "LineString",
        "coordinates": [
          [
            -58.37488,
            -34.5907
          ],
          [
            -58.3877,
            -34.58234
          ],
          [
            -58.39591,
            -34.57862
          ],
          [
            -58.40677,
            -34.56952
          ],
          [
            -58.41048,
            -34.56801
          ],
          [
            -58.4137,
            -34.56761
          ],
          [
            -58.419,
            -34.56847
          ],
          [
            -58.43022,
            -34.57433
          ],
          [
            -58.4384,
            -34.57615
          ],
          [
            -58.44199,
            -34.57552
          ],
          [
            -58.465,
            -34.56689
          ],
          [
            -58.47209,
            -34.5662
          ],
          [
            -58.48072,
            -34.56918
          ],
          [
            -58.48659,
            -34.57398
          ],
          [
            -58.49725,
            -34.57955
          ],
          [
            -58.50125,
            -34.58043
          ],
          [
            -58.51165,
            -34.58132
          ],
          [
            -58.51643,
            -34.58116
          ],
          [
            -58.52046,
            -34.58035
          ],
          [
            -58.52621,
            -34.57783
          ],
          [
            -58.53429,
            -34.57153
          ],
          [
            -58.54167,
            -34.56239
          ],
          [
            -58.57585,
            -34.53485
          ]
        ]
      }
    },
    {
      "type": "Feature",
      "properties": {
        "slug": "retiro-bartolome-mitre",
        "linea": "mitre",
        "stations": [
          "Retiro (LGM)",
          "3 de febrero",
          "Ministro Carranza",
          "Colegiales",
          "Belgrano R",
          "Coghlan",
          "Saavedra",
          "Juan B. Justo",
          "Florida",
          "Dr. Cetrángolo",
          "Bmé. Mitre"
        ],
        "offsets": [
          0,
          5625,
          6564,
          7918,
          9334,
          10526,
          12202,
          13720,
          15062,
          15863,
          16903
        ]
      },
      "geometry": {
        "type": "LineString",
        "coordinates": [
          [
            -58.37488,
            -34.5907
          ],
          [
            -58.3877,
            -34.58234
          ],
          [
            -58.39591,
            -34.57862
          ],
          [
            -58.4061,
            -34.56998
          ],
          [
            -58.41048,
            -34.56801
          ],
          [
            -58.41524,
            -34.56758
          ],
          [
            -58.4182,
            -34.56818
          ],
          [
            -58.42941,
            -34.57404
          ],
          [
            -58.43602,
            -34.57587
          ],
          [
            -58.43905,
            -34.57612
          ],
          [
            -58.44199,
            -34.57552
          ],
          [
            -58.465,
            -34.56689
          ],
          [
            -58.47316,
            -34.56606
          ],
          [
            -58.48039,
            -34.56313
          ],
          [
            -58.4947,
            -34.54237
          ],
          [
            -58.49399,
            -34.52184
          ],
          [
            -58.49318,
            -34.51979
          ],
          [
            -58.48924,
            -34.51503
          ]
        ]
      }
    },
    {
      "type": "Feature",
      "properties": {
        "slug": "retiro-tigre",
        "linea": "mitre",
        "stations": [
          "Retiro (LGM)",
          "Lisandro de la Torre",
          "Belgrano C",
          "Nuñez",
          "Rivadavia",
          "Vicente López",
          "Olivos",
          "La Lucila",
          "Martínez",
          "Acassuso",
          "San Isidro C",
          "Beccar",
          "Victoria",
          "Virreyes",
          "San Fernando C",
          "Carupá",
          "Tigre"
        ],
        "offsets": [
          0,
          6677,
          7952,
          9579,
          11031,
          12434,
          14376,
          15830,
          17129,
          18248,
          19528,
          21227,
          22593,
          23790,
          24790,
          25749,
          27847
        ]
      },
      "geometry": {
        "type": "LineString",
        "coordinates": [
          [
            -58.37488,
            -34.5907
          ],
          [
            -58.3877,
            -34.58234
          ],
          [
            -58.39591,
            -34.57862
          ],
          [
            -58.40768,
            -34.56902
          ],
          [
            -58.41174,
            -34.56776
          ],
          [
            -58.41759,
            -34.56732
          ],
          [
            -58.42718,
            -34.56311
          ],
          [
            -58.43867,
            -34.56244
          ],
          [
            -58.44394,
            -34.56135
          ],
          [
            -58.45872,
            -34.55276
          ],
          [
            -58.4619,
            -34.54958
          ],
          [
            -58.46412,
            -34.54627
          ],
          [
            -58.48236,
            -34.5027
          ],
          [
            -58.49014,
            -34.49621
          ],
          [
            -58.49417,
            -34.49085
          ],
          [
            -58.49847,
            -34.48656
          ],
          [
            -58.50171,
            -34.48187
          ],
          [
            -58.51109,
            -34.47462
          ],
          [
            -58.51832,
            -34.46717
          ],
          [
            -58.52278,
            -34.4643
          ],
          [
            -58.52654,
            -34.4608
          ],
          [
            -58.54049,
            -34.45649
          ],
          [
            -58.55252,
            -34.44939
          ],
          [
            -58.56868,
            -34.43653
          ],
          [
            -58.57115,
            -34.43214
          ],
          [
            -58.58127,
            -34.42395
          ]
        ]
      }
    },
    {
      "type": "Feature",
      "properties": {
        "slug": "av-maipu-delta",
        "linea": "tren-de-la-costa",
        "stations": [
          "Maipú",
          "Borges",
          "Libertador",
          "Juan Anchorena",
          "Las Barrancas",
          "San Isidro R",
          "Punta Chica",
          "Marina Nueva",
          "San Fernando R",
          "Canal San Fernando",
          "Delta"
        ],
        "offsets": [
          0,
          655,
          1338,
          2861,
          5156,
          6749,
          8947,
          10542,
          12138,
          13317,
          15056
        ]
      },
      "geometry": {
        "type": "LineString",
        "coordinates": [
          [
            -58.48811,
            -34.51366
          ],
          [
            -58.48268,
            -34.50465
          ],
          [
            -58.48098,
            -34.49723
          ],
          [
            -58.48151,
            -34.48461
          ],
          [
            -58.48517,
            -34.47713
          ],
          [
            -58.49186,
            -34.47285
          ],
          [
            -58.50141,
            -34.46944
          ],
          [
            -58.51079,
            -34.46422
          ],
          [
            -58.5155,
            -34.4586
          ],
          [
            -58.52579,
            -34.44883
          ],
          [
            -58.53373,
            -34.44549
          ],
          [
            -58.54221,
            -34.4439
          ],
          [
            -58.55075,
            -34.43995
          ],
          [
            -58.57636,
            -34.41889
          ]
        ]
      }
    },
    {
      "type": "Feature",
      "properties": {
        "slug": "victoria-capilla-del-senor",
        "linea": "mitre",
        "stations": [
          "Victoria",
          "Dr. Schweitzer",
          "El Talar",
          "López Camelo",
          "Garín",
          "Maq. Savio",
          "Matheu",
          "Zelaya",
          "Los Cardales",
          "Capilla del Señor"
        ],
        "offsets": [
          0,
          3575,
          10497,
          13874,
          19986,
          23622,
          29554,
          33467,
          45208,
          56990
        ]
      },
      "geometry": {
        "type": "LineString",
        "coordinates": [
          [
            -58.54049,
            -34.45649
          ],
          [
            -58.54363,
            -34.45718
          ],
          [
            -58.57724,
            -34.4735
          ],
          [
            -58.58226,
            -34.47521
          ],
          [
            -58.58896,
            -34.4758
          ],
          [
            -58.61434,
            -34.47409
          ],
          [
            -58.62025,
            -34.47293
          ],
          [
            -58.646,
            -34.46279
          ],
          [
            -58.68615,
            -34.44252
          ],
          [
            -58.85105,
            -34.374
          ],
          [
            -58.90104,
            -34.36371
          ],
          [
            -58.98898,
            -34.3303
          ],
          [
            -59.08746,
            -34.29768
          ],
          [
            -59.09268,
            -34.29479
          ],
          [
            -59.10249,
            -34.28636
          ]
        ]
      }
    },
    {
      "type": "Feature",
      "properties": {
        "slug": "villa-ballester-zarate",
        "linea": "mitre",
        "stations": [
          "Villa Ballester",
          "Bancalari",
          "Gral. Pacheco",
          "Benavídez",
          "Ing. Maschwitz",
          "Escobar",
          "Río Luján",
          "Otamendi",
          "Campana",
          "Kilómetro 83",
          "Zárate"
        ],
        "offsets": [
          0,
          9231,
          12353,
          20231,
          25805,
          32399,
          44511,
          50762,
          60339,
          62134,
          72335
        ]
      },
      "geometry": {
        "type": "LineString",
        "coordinates": [
          [
            -58.55598,
            -34.55104
          ],
          [
            -58.57488,
            -34.53582
          ],
          [
            -58.58171,
            -34.52898
          ],
          [
            -58.59497,
            -34.49883
          ],
          [
            -58.59778,
            -34.48719
          ],
          [
            -58.6067,
            -34.47439
          ],
          [
            -58.61578,
            -34.45981
          ],
          [
            -58.61812,
            -34.45721
          ],
          [
            -58.65796,
            -34.43123
          ],
          [
            -58.6772,
            -34.41431
          ],
          [
            -58.68545,
            -34.40872
          ],
          [
            -58.71708,
            -34.39151
          ],
          [
            -58.76536,
            -34.37081
          ],
          [
            -58.84461,
            -34.31426
          ],
          [
            -58.8794,
            -34.2948
          ],
          [
            -58.88546,
            -34.29074
          ],
          [
            -58.88821,
            -34.28751
          ],
          [
            -58.88986,
            -34.28343
          ],
          [
            -58.89195,
            -34.25716
          ],
          [
            -58.89419,
            -34.24743
          ],
          [
            -58.89504,
            -34.22728
          ],
          [
            -58.89768,
            -34.21854
          ],
          [
            -58.90076,
            -34.2118
          ],
          [
            -58.90732,
            -34.20398
          ],
          [
            -58.91124,
            -34.19696
          ],
          [
            -58.91443,
            -34.19455
          ],
          [
            -58.92172,
            -34.19178
          ],
          [
            -58.92836,
            -34.18807
          ],
          [
            -58.93682,
            -34.17594
          ],
          [
            -58.94805,
            -34.16642
          ],
          [
            -58.95442,
            -34.15747
          ],
          [
            -58.96381,
            -34.15649
          ],
          [
            -58.97966,
            -34.16085
          ],
          [
            -58.98436,
            -34.16047
          ],
          [
            -59.02254,
            -34.13956
          ],
          [
            -59.03674,
            -34.12666
          ],
          [
            -59.03884,
            -34.12334
          ],
          [
            -59.03901,
            -34.11906
          ],
          [
            -59.03447,
            -34.10552
          ],
          [
            -59.03506,
            -34.10197
          ],
          [
            -59.03783,
            -34.09791
          ]
        ]
      }
    }
  ]
}